{"type":"FeatureCollection","features":[{"type":"Feature","geometry":{"type":"Polygon","coordinates":[[[-80.46305,-0.98842],[-80.46117,-0.99083],[-80.45923,-0.9925],[-80.46037,-0.99641],[-80.45836,-1.00003],[-80.45648,-1.00202],[-80.4561,-1.00372],[-80.45444,-1.00607],[-80.4536,-1.00505],[-80.45249,-1.00461],[-80.44921,-1.00636],[-80.44617,-1.01034],[-80.44468,-1.01142],[-80.44108,-1.01196],[-80.43773,-1.01185],[-80.43688,-1.01241],[-80.43613,-1.01547],[-80.43461,-1.01767],[-80.43342,-1.02172],[-80.43345,-1.02343],[-80.43029,-1.02463],[-80.42962,-1.02527],[-80.42801,-1.02711],[-80.42776,-1.02891],[-80.42508,-1.02974],[-80.42303,-1.02934],[-80.42116,-1.02942],[-80.41887,-1.03023],[-80.41827,-1.02914],[-80.41703,-1.02911],[-80.4156,-1.02988],[-80.41471,-1.03085],[-80.41395,-1.0302],[-80.41226,-1.02979],[-80.41088,-1.03093],[-80.41072,-1.0319],[-80.41,-1.03284],[-80.41038,-1.03573],[-80.40746,-1.03619],[-80.40757,-1.03698],[-80.40201,-1.03772],[-80.39906,-1.03613],[-80.39723,-1.03448],[-80.39539,-1.03187],[-80.39423,-1.03269],[-80.39327,-1.03409],[-80.39194,-1.03999],[-80.39284,-1.04518],[-80.39274,-1.04699],[-80.39335,-1.04915],[-80.39202,-1.04961],[-80.38884,-1.05244],[-80.3872,-1.05324],[-80.38605,-1.0531],[-80.3847,-1.05362],[-80.38135,-1.05314],[-80.37957,-1.05546],[-80.37683,-1.05728],[-80.37576,-1.05895],[-80.37398,-1.06424],[-80.37474,-1.06603],[-80.37636,-1.06641],[-80.38017,-1.0664],[-80.3861,-1.06981],[-80.39175,-1.06775],[-80.3961,-1.06746],[-80.39838,-1.0659],[-80.39977,-1.06638],[-80.40099,-1.06602],[-80.40373,-1.06621],[-80.40628,-1.06911],[-80.40757,-1.06847],[-80.41174,-1.07116],[-80.413,-1.07357],[-80.41297,-1.07483],[-80.4187,-1.07609],[-80.4205,-1.07747],[-80.42467,-1.0785],[-80.42759,-1.07794],[-80.42965,-1.07855],[-80.43042,-1.07973],[-80.4314,-1.08028],[-80.43165,-1.081],[-80.43643,-1.08057],[-80.43689,-1.08022],[-80.43668,-1.07881],[-80.43577,-1.07828],[-80.4373,-1.07588],[-80.43814,-1.07676],[-80.43915,-1.07617],[-80.43952,-1.07491],[-80.43901,-1.07343],[-80.4393,-1.07204],[-80.44066,-1.07068],[-80.43947,-1.07],[-80.43859,-1.07032],[-80.43742,-1.06921],[-80.43827,-1.06777],[-80.44002,-1.0666],[-80.44024,-1.06557],[-80.44106,-1.06433],[-80.441,-1.06409],[-80.44053,-1.06428],[-80.43997,-1.06487],[-80.43947,-1.0645],[-80.44025,-1.06334],[-80.44019,-1.06272],[-80.43953,-1.06284],[-80.43917,-1.06231],[-80.43998,-1.06137],[-80.43996,-1.06058],[-80.44201,-1.05934],[-80.44295,-1.05936],[-80.44434,-1.05993],[-80.44525,-1.06137],[-80.44616,-1.06134],[-80.44615,-1.06055],[-80.4452,-1.05981],[-80.45041,-1.0561],[-80.45158,-1.05444],[-80.45813,-1.05925],[-80.4583,-1.06021],[-80.46035,-1.0604],[-80.46091,-1.06005],[-80.46107,-1.05921],[-80.4622,-1.05853],[-80.46348,-1.057],[-80.46404,-1.05445],[-80.46242,-1.05238],[-80.46294,-1.05185],[-80.46361,-1.05157],[-80.46459,-1.05187],[-80.465,-1.0538],[-80.46897,-1.05253],[-80.47003,-1.04997],[-80.47273,-1.04789],[-80.47352,-1.04791],[-80.47403,-1.04833],[-80.47487,-1.05056],[-80.47732,-1.05105],[-80.47799,-1.05149],[-80.48096,-1.05123],[-80.48263,-1.04931],[-80.4829,-1.04937],[-80.48278,-1.05023],[-80.48407,-1.0504],[-80.48634,-1.04796],[-80.48703,-1.0457],[-80.48837,-1.04484],[-80.4892,-1.04707],[-80.49146,-1.05045],[-80.49403,-1.0561],[-80.49309,-1.05684],[-80.49511,-1.05888],[-80.49728,-1.05983],[-80.49906,-1.06171],[-80.49968,-1.06182],[-80.50115,-1.06306],[-80.50203,-1.06495],[-80.50168,-1.06528],[-80.50215,-1.06656],[-80.50301,-1.06805],[-80.50877,-1.07008],[-80.51261,-1.07077],[-80.52275,-1.07065],[-80.52818,-1.07295],[-80.53634,-1.07165],[-80.5385,-1.07038],[-80.54073,-1.0702],[-80.54136,-1.06984],[-80.5418,-1.0688],[-80.54255,-1.06842],[-80.54576,-1.06813],[-80.54635,-1.06752],[-80.54676,-1.0664],[-80.54625,-1.06244],[-80.54659,-1.06096],[-80.54735,-1.06022],[-80.547,-1.05839],[-80.54734,-1.05707],[-80.54658,-1.05476],[-80.54599,-1.05378],[-80.54533,-1.05362],[-80.5447,-1.0521],[-80.54545,-1.04902],[-80.5455,-1.0459],[-80.54519,-1.04507],[-80.54695,-1.04382],[-80.54793,-1.04261],[-80.54785,-1.0405],[-80.54848,-1.03868],[-80.54779,-1.03746],[-80.54701,-1.03704],[-80.54503,-1.03353],[-80.5443,-1.03302],[-80.54256,-1.03286],[-80.54183,-1.03236],[-80.54118,-1.03038],[-80.54106,-1.02758],[-80.53834,-1.02256],[-80.53834,-1.02149],[-80.53795,-1.021],[-80.53894,-1.02057],[-80.53951,-1.01881],[-80.53915,-1.0153],[-80.53826,-1.01163],[-80.53869,-1.01006],[-80.54067,-1.00959],[-80.54066,-1.00793],[-80.54315,-1.00709],[-80.54384,-1.00632],[-80.54405,-1.00484],[-80.54294,-1.00156],[-80.54367,-0.99972],[-80.5421,-0.99806],[-80.5402,-0.99758],[-80.54039,-0.99664],[-80.54225,-0.99458],[-80.54222,-0.99189],[-80.54294,-0.99005],[-80.54463,-0.98928],[-80.5446,-0.98891],[-80.54503,-0.98892],[-80.54602,-0.98769],[-80.54653,-0.98779],[-80.54745,-0.98694],[-80.54785,-0.98704],[-80.54825,-0.98602],[-80.54983,-0.98533],[-80.55034,-0.9842],[-80.55103,-0.98411],[-80.55119,-0.98237],[-80.55165,-0.98208],[-80.55755,-0.96711],[-80.55613,-0.96634],[-80.55587,-0.96548],[-80.55513,-0.96514],[-80.55404,-0.96319],[-80.55296,-0.96235],[-80.5523,-0.95893],[-80.55113,-0.95634],[-80.55039,-0.9565],[-80.54959,-0.95612],[-80.54941,-0.95495],[-80.54762,-0.95346],[-80.54415,-0.95393],[-80.54223,-0.95308],[-80.54294,-0.95145],[-80.54314,-0.94943],[-80.5439,-0.94716],[-80.54276,-0.94613],[-80.54019,-0.94521],[-80.54115,-0.94432],[-80.5423,-0.94199],[-80.54256,-0.94028],[-80.54548,-0.93865],[-80.54529,-0.93588],[-80.54573,-0.93471],[-80.54476,-0.93428],[-80.54367,-0.93292],[-80.54203,-0.92878],[-80.54,-0.92823],[-80.53869,-0.9233],[-80.53943,-0.9206],[-80.5387,-0.92066],[-80.53805,-0.92215],[-80.53651,-0.92294],[-80.53512,-0.92432],[-80.53439,-0.92586],[-80.53114,-0.92929],[-80.52906,-0.9307],[-80.52777,-0.93048],[-80.52641,-0.93083],[-80.52463,-0.93246],[-80.52298,-0.93583],[-80.52153,-0.93662],[-80.52103,-0.93734],[-80.52077,-0.94062],[-80.51931,-0.94113],[-80.51708,-0.94408],[-80.51697,-0.94546],[-80.51572,-0.94614],[-80.51572,-0.95088],[-80.5127,-0.9531],[-80.51345,-0.95436],[-80.51414,-0.95688],[-80.51409,-0.95751],[-80.51286,-0.95932],[-80.51232,-0.96139],[-80.51093,-0.96229],[-80.50711,-0.9632],[-80.50494,-0.96258],[-80.50532,-0.96318],[-80.50543,-0.96468],[-80.50517,-0.96581],[-80.50434,-0.96647],[-80.50418,-0.96785],[-80.50305,-0.96941],[-80.50267,-0.96941],[-80.50242,-0.96853],[-80.49987,-0.96743],[-80.49744,-0.96772],[-80.49599,-0.96832],[-80.49425,-0.96783],[-80.48997,-0.96768],[-80.48916,-0.96785],[-80.4888,-0.96868],[-80.48748,-0.96987],[-80.48596,-0.97046],[-80.48457,-0.97014],[-80.48278,-0.9707],[-80.47847,-0.97058],[-80.47659,-0.97263],[-80.47602,-0.97284],[-80.47539,-0.97151],[-80.47253,-0.96953],[-80.47155,-0.96771],[-80.46733,-0.96797],[-80.46632,-0.96769],[-80.46577,-0.96856],[-80.46273,-0.96875],[-80.46274,-0.9685],[-80.45922,-0.967],[-80.45737,-0.96904],[-80.45816,-0.97022],[-80.45927,-0.97027],[-80.45888,-0.97139],[-80.45854,-0.97104],[-80.45823,-0.97118],[-80.45758,-0.97409],[-80.45881,-0.9766],[-80.45824,-0.9773],[-80.45919,-0.97798],[-80.45974,-0.97741],[-80.4601,-0.97748],[-80.46043,-0.97856],[-80.46015,-0.9793],[-80.46103,-0.98007],[-80.4605,-0.9805],[-80.45843,-0.98008],[-80.45763,-0.98178],[-80.45854,-0.98261],[-80.46032,-0.982],[-80.46092,-0.98393],[-80.46201,-0.98457],[-80.46238,-0.98449],[-80.46262,-0.98347],[-80.46456,-0.98457],[-80.46364,-0.98854],[-80.46305,-0.98842]]]},"properties":{"circunscripcion":"CIRCUNSCRIPCION URBANA 1","circunscripcion_norm":"CIRCUNSCRIPCION URBANA 1","label":"Circunscripci\u00f3n 1 (Urbana)","short_label":"Circ. 1","canton":"PORTOVIEJO","parroquias":"12 DE MARZO, 18 DE OCTUBRE, FRANCISCO PACHECO, PICOAZA, SAN PABLO","color":"#400054","muestras":17,"cuota_casos":170,"center":[-1.0172,-80.4866],"bbox":[[-1.081,-80.55755],[-0.9206,-80.37398]]}},{"type":"Feature","geometry":{"type":"Polygon","coordinates":[[[-80.53855,-1.1741],[-80.53615,-1.17137],[-80.5347,-1.17094],[-80.53279,-1.16957],[-80.53475,-1.1693],[-80.53661,-1.16797],[-80.53851,-1.16373],[-80.54116,-1.16249],[-80.54169,-1.16057],[-80.54221,-1.16024],[-80.54282,-1.1604],[-80.5439,-1.15854],[-80.5447,-1.15808],[-80.54396,-1.15289],[-80.54476,-1.15178],[-80.54388,-1.1505],[-80.54485,-1.14777],[-80.54468,-1.14703],[-80.54198,-1.14534],[-80.54197,-1.14422],[-80.54108,-1.14281],[-80.54118,-1.14185],[-80.54047,-1.14034],[-80.54082,-1.13861],[-80.54,-1.13656],[-80.53918,-1.13602],[-80.53913,-1.13546],[-80.53565,-1.1335],[-80.53508,-1.13204],[-80.53431,-1.13151],[-80.53436,-1.13094],[-80.53396,-1.13093],[-80.53387,-1.13046],[-80.53422,-1.13032],[-80.53366,-1.13009],[-80.53372,-1.12961],[-80.53243,-1.12832],[-80.53355,-1.12625],[-80.53385,-1.12624],[-80.5338,-1.12585],[-80.53416,-1.12578],[-80.53392,-1.1252],[-80.53418,-1.12467],[-80.53379,-1.1243],[-80.53402,-1.12415],[-80.53361,-1.12283],[-80.534,-1.12276],[-80.53398,-1.12235],[-80.53336,-1.12185],[-80.53376,-1.12178],[-80.53341,-1.1209],[-80.53383,-1.12029],[-80.53341,-1.12033],[-80.53314,-1.11903],[-80.53232,-1.11861],[-80.53273,-1.11845],[-80.53125,-1.10595],[-80.5318,-1.1048],[-80.53077,-1.10037],[-80.53077,-1.09898],[-80.53093,-1.09802],[-80.53275,-1.09522],[-80.52994,-1.09292],[-80.52699,-1.08818],[-80.52517,-1.08158],[-80.52811,-1.08159],[-80.52888,-1.08201],[-80.52993,-1.0819],[-80.53042,-1.08229],[-80.5317,-1.08192],[-80.53243,-1.08224],[-80.53363,-1.0821],[-80.53613,-1.08314],[-80.53613,-1.08161],[-80.53794,-1.08016],[-80.54075,-1.07882],[-80.54167,-1.07797],[-80.5436,-1.07719],[-80.54392,-1.07759],[-80.54497,-1.07686],[-80.54714,-1.07629],[-80.54916,-1.07497],[-80.5494,-1.0741],[-80.55066,-1.07299],[-80.55081,-1.07149],[-80.54916,-1.07128],[-80.54863,-1.06972],[-80.54633,-1.06926],[-80.54591,-1.06832],[-80.54635,-1.06752],[-80.54576,-1.06813],[-80.54255,-1.06842],[-80.5418,-1.0688],[-80.54136,-1.06984],[-80.54073,-1.0702],[-80.5385,-1.07038],[-80.53634,-1.07165],[-80.52818,-1.07295],[-80.52275,-1.07065],[-80.51261,-1.07077],[-80.50877,-1.07008],[-80.50301,-1.06805],[-80.50215,-1.06656],[-80.50168,-1.06528],[-80.50203,-1.06495],[-80.50115,-1.06306],[-80.49968,-1.06182],[-80.49906,-1.06171],[-80.49728,-1.05983],[-80.49511,-1.05888],[-80.49309,-1.05684],[-80.49403,-1.0561],[-80.49146,-1.05045],[-80.4892,-1.04707],[-80.48837,-1.04484],[-80.48703,-1.0457],[-80.48634,-1.04796],[-80.48407,-1.0504],[-80.48278,-1.05023],[-80.4829,-1.04937],[-80.48263,-1.04931],[-80.48096,-1.05123],[-80.47799,-1.05149],[-80.47732,-1.05105],[-80.47487,-1.05056],[-80.47403,-1.04833],[-80.47352,-1.04791],[-80.47273,-1.04789],[-80.47003,-1.04997],[-80.46897,-1.05253],[-80.465,-1.0538],[-80.46459,-1.05187],[-80.46361,-1.05157],[-80.46294,-1.05185],[-80.46242,-1.05238],[-80.46404,-1.05445],[-80.46348,-1.057],[-80.4622,-1.05853],[-80.46107,-1.05921],[-80.46091,-1.06005],[-80.46035,-1.0604],[-80.4583,-1.06021],[-80.45813,-1.05925],[-80.45158,-1.05444],[-80.45041,-1.0561],[-80.4452,-1.05981],[-80.44615,-1.06055],[-80.44616,-1.06134],[-80.44525,-1.06137],[-80.44434,-1.05993],[-80.44295,-1.05936],[-80.44201,-1.05934],[-80.43996,-1.06058],[-80.43998,-1.06137],[-80.43917,-1.06231],[-80.43953,-1.06284],[-80.44019,-1.06272],[-80.44025,-1.06334],[-80.43947,-1.0645],[-80.43997,-1.06487],[-80.44053,-1.06428],[-80.441,-1.06409],[-80.44106,-1.06433],[-80.44024,-1.06557],[-80.44002,-1.0666],[-80.43827,-1.06777],[-80.43742,-1.06921],[-80.43859,-1.07032],[-80.43947,-1.07],[-80.44066,-1.07068],[-80.4393,-1.07204],[-80.43901,-1.07343],[-80.43952,-1.07491],[-80.43915,-1.07617],[-80.43814,-1.07676],[-80.4373,-1.07588],[-80.43577,-1.07828],[-80.43668,-1.07881],[-80.43689,-1.08022],[-80.43643,-1.08057],[-80.43165,-1.081],[-80.4314,-1.08028],[-80.43042,-1.07973],[-80.42965,-1.07855],[-80.42759,-1.07794],[-80.42467,-1.0785],[-80.4205,-1.07747],[-80.4187,-1.07609],[-80.41297,-1.07483],[-80.413,-1.07357],[-80.41174,-1.07116],[-80.40757,-1.06847],[-80.40628,-1.06911],[-80.40373,-1.06621],[-80.40099,-1.06602],[-80.39977,-1.06638],[-80.39838,-1.0659],[-80.3961,-1.06746],[-80.39175,-1.06775],[-80.3861,-1.06981],[-80.38017,-1.0664],[-80.37606,-1.06632],[-80.37543,-1.06897],[-80.3731,-1.07317],[-80.36752,-1.07328],[-80.36636,-1.07516],[-80.3645,-1.07678],[-80.36271,-1.07952],[-80.35978,-1.07947],[-80.35811,-1.07899],[-80.35524,-1.0796],[-80.35502,-1.08045],[-80.35158,-1.08491],[-80.34965,-1.08671],[-80.34958,-1.09027],[-80.34896,-1.09204],[-80.34911,-1.09422],[-80.34845,-1.09586],[-80.34954,-1.0984],[-80.35247,-1.1001],[-80.35304,-1.10205],[-80.35309,-1.10396],[-80.35136,-1.10501],[-80.35193,-1.10644],[-80.35095,-1.10767],[-80.34747,-1.10909],[-80.34584,-1.10907],[-80.34569,-1.11057],[-80.34473,-1.11267],[-80.34309,-1.11397],[-80.34216,-1.11336],[-80.34086,-1.11314],[-80.33996,-1.1134],[-80.33909,-1.11468],[-80.33722,-1.11362],[-80.33639,-1.11356],[-80.33444,-1.11451],[-80.33328,-1.11585],[-80.33111,-1.11435],[-80.32863,-1.11361],[-80.3266,-1.11501],[-80.32586,-1.11408],[-80.32525,-1.11404],[-80.32433,-1.11563],[-80.32384,-1.11579],[-80.32548,-1.11828],[-80.32559,-1.11952],[-80.32504,-1.12055],[-80.32556,-1.12116],[-80.32514,-1.12218],[-80.32565,-1.12421],[-80.32673,-1.12488],[-80.32686,-1.12634],[-80.32732,-1.12719],[-80.32594,-1.12857],[-80.32733,-1.12996],[-80.32887,-1.1306],[-80.3284,-1.1314],[-80.32831,-1.13381],[-80.32975,-1.13463],[-80.33258,-1.13517],[-80.3324,-1.13636],[-80.3311,-1.13696],[-80.33204,-1.14053],[-80.33373,-1.14115],[-80.33456,-1.14386],[-80.33549,-1.14414],[-80.33635,-1.14511],[-80.33846,-1.14526],[-80.33807,-1.14752],[-80.33947,-1.14895],[-80.34048,-1.14912],[-80.34254,-1.15162],[-80.34497,-1.15166],[-80.34536,-1.15222],[-80.34625,-1.15256],[-80.35039,-1.1521],[-80.35221,-1.15485],[-80.3534,-1.15535],[-80.35404,-1.15605],[-80.35682,-1.1551],[-80.35772,-1.15519],[-80.35845,-1.15485],[-80.36012,-1.15507],[-80.3644,-1.15871],[-80.37592,-1.15616],[-80.37612,-1.15417],[-80.37883,-1.15358],[-80.38152,-1.15548],[-80.38229,-1.15563],[-80.38162,-1.15706],[-80.38228,-1.15803],[-80.38307,-1.15796],[-80.38323,-1.15672],[-80.38372,-1.15607],[-80.3861,-1.1568],[-80.38693,-1.15878],[-80.38964,-1.16068],[-80.38937,-1.16196],[-80.38987,-1.16387],[-80.4021,-1.16495],[-80.40652,-1.17048],[-80.40969,-1.17117],[-80.41478,-1.17102],[-80.4165,-1.17225],[-80.41785,-1.17255],[-80.41854,-1.1731],[-80.41935,-1.17326],[-80.42177,-1.1725],[-80.42229,-1.1734],[-80.42451,-1.17403],[-80.42513,-1.17374],[-80.42639,-1.1741],[-80.42761,-1.17391],[-80.42928,-1.17551],[-80.43058,-1.17579],[-80.43227,-1.17703],[-80.43423,-1.17699],[-80.43918,-1.17886],[-80.44078,-1.17984],[-80.44188,-1.17985],[-80.44442,-1.18115],[-80.44755,-1.1818],[-80.44867,-1.18245],[-80.45024,-1.18428],[-80.45042,-1.18625],[-80.45086,-1.18695],[-80.45526,-1.18534],[-80.45717,-1.18381],[-80.46107,-1.18443],[-80.46454,-1.1835],[-80.4705,-1.18338],[-80.4729,-1.1825],[-80.47566,-1.18311],[-80.47689,-1.18275],[-80.48051,-1.18339],[-80.48471,-1.18209],[-80.48554,-1.18264],[-80.48693,-1.18289],[-80.4874,-1.1845],[-80.48833,-1.18456],[-80.49077,-1.18566],[-80.49445,-1.18845],[-80.4966,-1.18825],[-80.4978,-1.18755],[-80.50008,-1.18883],[-80.5059,-1.18983],[-80.50682,-1.18988],[-80.51124,-1.18861],[-80.51466,-1.18873],[-80.51533,-1.18929],[-80.51624,-1.18912],[-80.51791,-1.18961],[-80.51904,-1.18947],[-80.52167,-1.1899],[-80.52289,-1.1906],[-80.52309,-1.19134],[-80.52979,-1.19504],[-80.53011,-1.19551],[-80.52904,-1.19787],[-80.53004,-1.19853],[-80.53094,-1.19849],[-80.53446,-1.19561],[-80.53497,-1.19204],[-80.53564,-1.19026],[-80.53502,-1.18909],[-80.53909,-1.1858],[-80.54005,-1.18424],[-80.54036,-1.18271],[-80.53853,-1.18017],[-80.53828,-1.17902],[-80.53751,-1.17789],[-80.53855,-1.1741]]]},"properties":{"circunscripcion":"CIRCUNSCRIPCION URBANA 2","circunscripcion_norm":"CIRCUNSCRIPCION URBANA 2","label":"Circunscripci\u00f3n 2 (Urbana)","short_label":"Circ. 2","canton":"PORTOVIEJO","parroquias":"ANDRES DE VERA, COLON, PORTOVIEJO, SIMON BOLIVAR","color":"#0284c7","muestras":17,"cuota_casos":170,"center":[-1.12233,-80.44768],"bbox":[[-1.19853,-80.55081],[-1.04484,-80.32384]]}},{"type":"Feature","geometry":{"type":"MultiPolygon","coordinates":[[[[-80.26392,-0.97876],[-80.2628,-0.97956],[-80.26112,-0.97962],[-80.26049,-0.97911],[-80.26001,-0.97927],[-80.25921,-0.98178],[-80.25819,-0.98206],[-80.25782,-0.98378],[-80.2585,-0.98554],[-80.25628,-0.9871],[-80.25527,-0.98704],[-80.25334,-0.98904],[-80.25337,-0.99167],[-80.2545,-0.99552],[-80.25332,-0.99866],[-80.25281,-0.99867],[-80.25217,-0.99938],[-80.25221,-1.00009],[-80.25156,-1.00017],[-80.25164,-1.00159],[-80.25229,-1.00237],[-80.25227,-1.00861],[-80.25161,-1.00882],[-80.25178,-1.00955],[-80.25301,-1.01018],[-80.25356,-1.01382],[-80.25526,-1.01658],[-80.2566,-1.01697],[-80.25625,-1.0183],[-80.25644,-1.01913],[-80.25814,-1.01994],[-80.25839,-1.02086],[-80.25631,-1.02639],[-80.25583,-1.02703],[-80.2545,-1.02683],[-80.25358,-1.02806],[-80.252,-1.03644],[-80.252,-1.04009],[-80.25119,-1.0404],[-80.25008,-1.04369],[-80.2472,-1.04646],[-80.24492,-1.04756],[-80.24299,-1.04735],[-80.24257,-1.04885],[-80.24163,-1.04928],[-80.23901,-1.04958],[-80.23793,-1.04903],[-80.23617,-1.0496],[-80.2352,-1.05044],[-80.23393,-1.05085],[-80.23309,-1.05222],[-80.23232,-1.05193],[-80.23169,-1.05059],[-80.23066,-1.04957],[-80.22923,-1.049],[-80.22751,-1.0491],[-80.22656,-1.0487],[-80.22325,-1.0507],[-80.22175,-1.04745],[-80.2201,-1.0476],[-80.21846,-1.04666],[-80.21751,-1.04663],[-80.21662,-1.04583],[-80.21587,-1.04615],[-80.21509,-1.04578],[-80.21509,-1.04137],[-80.21536,-1.04073],[-80.21339,-1.03456],[-80.20241,-1.03167],[-80.1854,-1.03169],[-80.18498,-1.03139],[-80.18433,-1.03244],[-80.18309,-1.03302],[-80.18064,-1.0319],[-80.17931,-1.03053],[-80.178,-1.02986],[-80.17352,-1.02864],[-80.17176,-1.02906],[-80.16993,-1.02883],[-80.16753,-1.03003],[-80.16605,-1.02932],[-80.16476,-1.02958],[-80.16476,-1.03771],[-80.16348,-1.0373],[-80.16255,-1.03635],[-80.16125,-1.0361],[-80.16017,-1.03481],[-80.15843,-1.0337],[-80.15674,-1.03351],[-80.15366,-1.03207],[-80.15275,-1.03466],[-80.15221,-1.0351],[-80.15233,-1.03629],[-80.15148,-1.03989],[-80.15008,-1.04218],[-80.14868,-1.04082],[-80.14809,-1.04047],[-80.14772,-1.04076],[-80.14724,-1.04002],[-80.14634,-1.04001],[-80.14584,-1.0391],[-80.14302,-1.03825],[-80.1421,-1.0372],[-80.14078,-1.03721],[-80.13914,-1.03662],[-80.13697,-1.03672],[-80.13568,-1.03507],[-80.13368,-1.03505],[-80.132,-1.03859],[-80.13197,-1.03915],[-80.13295,-1.03899],[-80.13386,-1.0407],[-80.13278,-1.04353],[-80.13253,-1.04561],[-80.13067,-1.04488],[-80.12881,-1.04315],[-80.12508,-1.04298],[-80.12448,-1.04328],[-80.12371,-1.04296],[-80.12104,-1.04379],[-80.11844,-1.04276],[-80.11797,-1.04212],[-80.1181,-1.0403],[-80.11744,-1.03888],[-80.11876,-1.03687],[-80.11905,-1.03446],[-80.11881,-1.03332],[-80.1162,-1.0327],[-80.11635,-1.03308],[-80.11554,-1.03339],[-80.11252,-1.03247],[-80.1109,-1.03324],[-80.10991,-1.03466],[-80.1099,-1.03641],[-80.10912,-1.03704],[-80.10746,-1.03739],[-80.10645,-1.03805],[-80.10237,-1.03736],[-80.10216,-1.03597],[-80.10085,-1.03585],[-80.09991,-1.03437],[-80.09792,-1.03395],[-80.09668,-1.03435],[-80.09467,-1.03386],[-80.09182,-1.03522],[-80.09072,-1.03823],[-80.08999,-1.03878],[-80.08908,-1.03805],[-80.08802,-1.03788],[-80.08712,-1.03344],[-80.08634,-1.03232],[-80.08668,-1.03145],[-80.08611,-1.03021],[-80.08659,-1.029],[-80.08645,-1.02811],[-80.08703,-1.02704],[-80.08653,-1.02594],[-80.08679,-1.02503],[-80.08617,-1.02381],[-80.08493,-1.02339],[-80.08307,-1.02455],[-80.08067,-1.02383],[-80.07954,-1.02401],[-80.07696,-1.02344],[-80.07695,-1.01862],[-80.07211,-1.01697],[-80.069,-1.0177],[-80.0625,-1.01543],[-80.0605,-1.01773],[-80.05509,-1.01557],[-80.04959,-1.01477],[-80.04562,-1.01477],[-80.03918,-1.01745],[-80.03425,-1.01839],[-80.03106,-1.01651],[-80.02694,-1.01595],[-80.02162,-1.01979],[-80.01325,-1.01851],[-80.00936,-1.01939],[-80.00885,-1.03008],[-80.00721,-1.03334],[-80.00921,-1.04154],[-80.00637,-1.04355],[-80.00664,-1.04355],[-80.00668,-1.04482],[-80.00742,-1.04448],[-80.0081,-1.04513],[-80.00895,-1.04522],[-80.00906,-1.04603],[-80.00984,-1.04629],[-80.01075,-1.04601],[-80.01103,-1.04658],[-80.0125,-1.04758],[-80.01371,-1.04788],[-80.01426,-1.04767],[-80.01492,-1.04912],[-80.01551,-1.04906],[-80.0164,-1.04799],[-80.02212,-1.048],[-80.02419,-1.04911],[-80.02478,-1.05011],[-80.02491,-1.05127],[-80.02384,-1.05359],[-80.02448,-1.05382],[-80.02404,-1.05404],[-80.02369,-1.05516],[-80.02302,-1.055],[-80.02316,-1.05611],[-80.02252,-1.05698],[-80.02291,-1.05775],[-80.0239,-1.05788],[-80.02237,-1.05902],[-80.0213,-1.05851],[-80.02143,-1.05966],[-80.02026,-1.05939],[-80.02023,-1.06036],[-80.01973,-1.05966],[-80.01933,-1.0595],[-80.01888,-1.05991],[-80.018,-1.05902],[-80.01718,-1.0602],[-80.01883,-1.06034],[-80.01986,-1.06228],[-80.02074,-1.06279],[-80.02126,-1.0641],[-80.02125,-1.06525],[-80.02316,-1.06668],[-80.024,-1.0681],[-80.02492,-1.06804],[-80.02612,-1.06709],[-80.02654,-1.06723],[-80.02475,-1.06978],[-80.0257,-1.07064],[-80.02677,-1.0708],[-80.02677,-1.07469],[-80.02763,-1.07384],[-80.02828,-1.07394],[-80.03002,-1.07279],[-80.03185,-1.07365],[-80.03298,-1.07378],[-80.03437,-1.07543],[-80.03543,-1.07551],[-80.03531,-1.07611],[-80.04468,-1.07611],[-80.04451,-1.07418],[-80.04519,-1.07371],[-80.04526,-1.0725],[-80.04431,-1.06958],[-80.04487,-1.06819],[-80.04408,-1.06727],[-80.04424,-1.0668],[-80.04534,-1.06639],[-80.04539,-1.06599],[-80.04576,-1.06609],[-80.04675,-1.06547],[-80.04794,-1.06559],[-80.05006,-1.06455],[-80.05107,-1.06471],[-80.05139,-1.06411],[-80.05278,-1.06359],[-80.05359,-1.06372],[-80.0541,-1.0645],[-80.05609,-1.06475],[-80.05868,-1.0639],[-80.06092,-1.06438],[-80.06162,-1.06356],[-80.06429,-1.06365],[-80.06616,-1.06305],[-80.06835,-1.0639],[-80.06954,-1.06357],[-80.07025,-1.0645],[-80.07302,-1.06442],[-80.07436,-1.06375],[-80.07516,-1.06256],[-80.07713,-1.06204],[-80.07807,-1.0624],[-80.07808,-1.06353],[-80.07949,-1.06456],[-80.08029,-1.06582],[-80.08159,-1.06614],[-80.08275,-1.06571],[-80.0856,-1.06639],[-80.08651,-1.06756],[-80.0872,-1.06933],[-80.08789,-1.0692],[-80.0899,-1.0698],[-80.09071,-1.07058],[-80.09229,-1.07033],[-80.09269,-1.07113],[-80.09211,-1.07218],[-80.09313,-1.07313],[-80.09381,-1.07309],[-80.094,-1.07264],[-80.09573,-1.07154],[-80.09654,-1.07168],[-80.09882,-1.07032],[-80.09931,-1.0709],[-80.1005,-1.07098],[-80.10148,-1.07164],[-80.10398,-1.0712],[-80.10558,-1.07255],[-80.10565,-1.07335],[-80.10633,-1.07328],[-80.10826,-1.07465],[-80.10841,-1.07567],[-80.10935,-1.0763],[-80.10957,-1.07876],[-80.11068,-1.07932],[-80.11234,-1.08096],[-80.11462,-1.0813],[-80.11522,-1.0817],[-80.11573,-1.0813],[-80.1164,-1.07943],[-80.11836,-1.0776],[-80.12182,-1.07822],[-80.12304,-1.0779],[-80.12409,-1.07701],[-80.12492,-1.07696],[-80.12685,-1.07884],[-80.12791,-1.07893],[-80.13117,-1.08267],[-80.13734,-1.08196],[-80.13834,-1.08004],[-80.14151,-1.08133],[-80.14236,-1.08262],[-80.14499,-1.08368],[-80.1451,-1.085],[-80.14647,-1.08908],[-80.1512,-1.08742],[-80.15416,-1.08775],[-80.15537,-1.08724],[-80.15673,-1.08769],[-80.15918,-1.08731],[-80.16016,-1.08771],[-80.16185,-1.08749],[-80.16528,-1.09044],[-80.17332,-1.08987],[-80.17891,-1.09044],[-80.18508,-1.0892],[-80.18928,-1.08793],[-80.19117,-1.08588],[-80.19114,-1.0849],[-80.19235,-1.08382],[-80.19326,-1.08341],[-80.19548,-1.08352],[-80.19687,-1.08298],[-80.19761,-1.08211],[-80.19855,-1.08265],[-80.19985,-1.08198],[-80.20093,-1.08303],[-80.20329,-1.0832],[-80.20377,-1.08436],[-80.20559,-1.08561],[-80.20623,-1.08468],[-80.20853,-1.08305],[-80.21214,-1.0832],[-80.21313,-1.08482],[-80.2151,-1.0857],[-80.21672,-1.0851],[-80.21797,-1.08336],[-80.22042,-1.08122],[-80.22279,-1.08101],[-80.22365,-1.08054],[-80.22439,-1.08067],[-80.22723,-1.08265],[-80.22909,-1.08274],[-80.2295,-1.08355],[-80.23131,-1.08491],[-80.2316,-1.08586],[-80.2311,-1.08722],[-80.23144,-1.08956],[-80.23273,-1.09037],[-80.23408,-1.09067],[-80.23609,-1.08922],[-80.23808,-1.08972],[-80.23893,-1.0903],[-80.24412,-1.08948],[-80.24625,-1.09011],[-80.24902,-1.08849],[-80.25172,-1.08818],[-80.25312,-1.08737],[-80.25367,-1.08664],[-80.25472,-1.08694],[-80.25528,-1.08783],[-80.25686,-1.08706],[-80.25783,-1.08708],[-80.2597,-1.08869],[-80.26081,-1.08847],[-80.26336,-1.0895],[-80.2642,-1.09271],[-80.26539,-1.09413],[-80.26698,-1.09248],[-80.26828,-1.09197],[-80.26951,-1.09325],[-80.27084,-1.09331],[-80.2718,-1.09433],[-80.27407,-1.09394],[-80.27736,-1.09275],[-80.2797,-1.09342],[-80.28096,-1.09585],[-80.28179,-1.09651],[-80.28373,-1.09731],[-80.28521,-1.09686],[-80.28645,-1.09704],[-80.28699,-1.09766],[-80.28746,-1.09975],[-80.28848,-1.10061],[-80.28996,-1.10066],[-80.29047,-1.10294],[-80.29208,-1.10438],[-80.29288,-1.10599],[-80.29335,-1.10636],[-80.29479,-1.1064],[-80.29598,-1.10729],[-80.29469,-1.10995],[-80.29739,-1.10981],[-80.29878,-1.11008],[-80.30001,-1.10941],[-80.30126,-1.10776],[-80.30254,-1.10791],[-80.30471,-1.10909],[-80.30592,-1.10792],[-80.30703,-1.1075],[-80.30765,-1.10659],[-80.30834,-1.10643],[-80.31075,-1.10829],[-80.31284,-1.10876],[-80.31325,-1.10976],[-80.3141,-1.11056],[-80.31903,-1.11266],[-80.31941,-1.11413],[-80.32024,-1.11505],[-80.32147,-1.11506],[-80.32256,-1.11581],[-80.32399,-1.11577],[-80.32525,-1.11404],[-80.32586,-1.11408],[-80.3266,-1.11501],[-80.32863,-1.11361],[-80.33048,-1.11405],[-80.33344,-1.11583],[-80.33444,-1.11451],[-80.33639,-1.11356],[-80.33722,-1.11362],[-80.33909,-1.11468],[-80.33996,-1.1134],[-80.34086,-1.11314],[-80.34337,-1.11386],[-80.34473,-1.11267],[-80.34569,-1.11057],[-80.34584,-1.10907],[-80.34747,-1.10909],[-80.35047,-1.10794],[-80.35151,-1.10713],[-80.35195,-1.10616],[-80.35136,-1.10501],[-80.35309,-1.10396],[-80.35279,-1.10058],[-80.35212,-1.09981],[-80.34954,-1.0984],[-80.34844,-1.09571],[-80.34911,-1.09422],[-80.34896,-1.09204],[-80.34958,-1.09027],[-80.34965,-1.08671],[-80.35158,-1.08491],[-80.35502,-1.08045],[-80.35524,-1.0796],[-80.35811,-1.07899],[-80.35978,-1.07947],[-80.36271,-1.07952],[-80.3645,-1.07678],[-80.36636,-1.07516],[-80.36752,-1.07328],[-80.3731,-1.07317],[-80.37543,-1.06897],[-80.37622,-1.06658],[-80.37474,-1.06603],[-80.37398,-1.06424],[-80.37576,-1.05895],[-80.37655,-1.05759],[-80.37957,-1.05546],[-80.38145,-1.05307],[-80.3847,-1.05362],[-80.38605,-1.0531],[-80.3872,-1.05324],[-80.38884,-1.05244],[-80.39202,-1.04961],[-80.39335,-1.04915],[-80.39274,-1.04699],[-80.39284,-1.04518],[-80.39194,-1.03999],[-80.39327,-1.03409],[-80.3939,-1.033],[-80.39539,-1.03187],[-80.39723,-1.03448],[-80.39906,-1.03613],[-80.40201,-1.03772],[-80.40757,-1.03698],[-80.40746,-1.03619],[-80.41038,-1.03573],[-80.41,-1.03284],[-80.41072,-1.0319],[-80.41088,-1.03093],[-80.41226,-1.02979],[-80.41395,-1.0302],[-80.41471,-1.03085],[-80.4156,-1.02988],[-80.41703,-1.02911],[-80.41827,-1.02914],[-80.41887,-1.03023],[-80.42116,-1.02942],[-80.42303,-1.02934],[-80.42508,-1.02974],[-80.42776,-1.02891],[-80.42801,-1.02711],[-80.42962,-1.02527],[-80.43029,-1.02463],[-80.43345,-1.02343],[-80.43342,-1.02172],[-80.43461,-1.01767],[-80.43613,-1.01547],[-80.43688,-1.01241],[-80.43773,-1.01185],[-80.44108,-1.01196],[-80.44468,-1.01142],[-80.44617,-1.01034],[-80.44921,-1.00636],[-80.45249,-1.00461],[-80.4536,-1.00505],[-80.45444,-1.00607],[-80.4561,-1.00372],[-80.45648,-1.00202],[-80.45836,-1.00003],[-80.46037,-0.99641],[-80.45923,-0.9925],[-80.46117,-0.99083],[-80.46305,-0.98842],[-80.46364,-0.98854],[-80.46467,-0.98498],[-80.46435,-0.98437],[-80.46269,-0.98347],[-80.46224,-0.98459],[-80.46102,-0.98403],[-80.46032,-0.982],[-80.45854,-0.98261],[-80.45763,-0.98178],[-80.45843,-0.98008],[-80.4605,-0.9805],[-80.46103,-0.98007],[-80.46015,-0.9793],[-80.46043,-0.97856],[-80.4601,-0.97748],[-80.45974,-0.97741],[-80.45919,-0.97798],[-80.45824,-0.9773],[-80.45881,-0.9766],[-80.45767,-0.97465],[-80.45757,-0.97357],[-80.45817,-0.97136],[-80.45842,-0.97104],[-80.45885,-0.97139],[-80.45912,-0.97115],[-80.45913,-0.97007],[-80.45447,-0.97146],[-80.45267,-0.97136],[-80.45111,-0.97379],[-80.45003,-0.97674],[-80.44857,-0.97846],[-80.44743,-0.98056],[-80.44418,-0.98249],[-80.44255,-0.98391],[-80.43828,-0.98438],[-80.43593,-0.98071],[-80.43423,-0.97671],[-80.43301,-0.97491],[-80.43245,-0.975],[-80.43197,-0.97374],[-80.43089,-0.97407],[-80.42996,-0.97276],[-80.42939,-0.97051],[-80.43027,-0.96991],[-80.43008,-0.96929],[-80.4294,-0.97018],[-80.42883,-0.9702],[-80.42718,-0.97008],[-80.42613,-0.96889],[-80.42589,-0.96903],[-80.4262,-0.96529],[-80.42506,-0.96363],[-80.4248,-0.96264],[-80.4251,-0.95696],[-80.42396,-0.95576],[-80.42145,-0.95494],[-80.42012,-0.95526],[-80.41808,-0.95497],[-80.41631,-0.95419],[-80.41422,-0.95432],[-80.41197,-0.95539],[-80.40983,-0.95479],[-80.40678,-0.953],[-80.40607,-0.9521],[-80.40584,-0.9509],[-80.40494,-0.95061],[-80.4015,-0.95219],[-80.3996,-0.95492],[-80.39439,-0.95448],[-80.39244,-0.95519],[-80.39097,-0.95353],[-80.38831,-0.95276],[-80.38799,-0.95316],[-80.38817,-0.95401],[-80.38543,-0.9551],[-80.38466,-0.95575],[-80.38394,-0.95438],[-80.38177,-0.95251],[-80.38049,-0.95185],[-80.38052,-0.95085],[-80.37996,-0.95019],[-80.37532,-0.94799],[-80.37416,-0.94624],[-80.37257,-0.94616],[-80.37096,-0.94497],[-80.36977,-0.9451],[-80.36914,-0.94557],[-80.36797,-0.94844],[-80.36439,-0.95137],[-80.36336,-0.95283],[-80.36263,-0.95342],[-80.36101,-0.95374],[-80.35998,-0.95466],[-80.35722,-0.95337],[-80.35639,-0.95336],[-80.35586,-0.95378],[-80.35224,-0.95199],[-80.35093,-0.95235],[-80.34849,-0.95147],[-80.34693,-0.95134],[-80.34539,-0.95195],[-80.3449,-0.95252],[-80.34343,-0.95564],[-80.34155,-0.95315],[-80.33889,-0.95209],[-80.33648,-0.94958],[-80.33242,-0.95263],[-80.32897,-0.95213],[-80.32641,-0.95132],[-80.32513,-0.95297],[-80.32435,-0.95514],[-80.32447,-0.95592],[-80.32677,-0.95934],[-80.32848,-0.96103],[-80.32916,-0.96293],[-80.33019,-0.9637],[-80.33244,-0.96434],[-80.335,-0.96614],[-80.33546,-0.96726],[-80.33737,-0.96872],[-80.3381,-0.97059],[-80.33748,-0.97208],[-80.33839,-0.97461],[-80.33761,-0.97671],[-80.33811,-0.97834],[-80.33695,-0.97991],[-80.33499,-0.98734],[-80.33502,-0.98854],[-80.3331,-0.99187],[-80.33241,-0.99559],[-80.33479,-0.99683],[-80.3342,-1.00071],[-80.33281,-1.00259],[-80.33263,-1.00821],[-80.3293,-1.00903],[-80.32692,-1.00855],[-80.32312,-1.00438],[-80.31955,-1.0041],[-80.31456,-1.00471],[-80.30918,-1.00622],[-80.30616,-1.00916],[-80.30411,-1.00941],[-80.30088,-1.00789],[-80.29861,-1.00838],[-80.29471,-1.0059],[-80.29038,-1.00446],[-80.28969,-1.00393],[-80.29032,-1.00275],[-80.29142,-0.99807],[-80.29233,-0.99741],[-80.29109,-0.99728],[-80.28919,-0.99482],[-80.28841,-0.99183],[-80.28849,-0.9907],[-80.28905,-0.99009],[-80.28758,-0.99005],[-80.28613,-0.99056],[-80.28492,-0.99025],[-80.28253,-0.98646],[-80.28184,-0.98732],[-80.27923,-0.98798],[-80.27815,-0.98763],[-80.27741,-0.98626],[-80.27615,-0.98527],[-80.27485,-0.98529],[-80.27256,-0.98646],[-80.27073,-0.98633],[-80.26926,-0.98735],[-80.26738,-0.98712],[-80.26669,-0.98665],[-80.26706,-0.98507],[-80.26672,-0.98418],[-80.2662,-0.98385],[-80.26527,-0.98395],[-80.26389,-0.98236],[-80.2639,-0.98002],[-80.26459,-0.97859],[-80.26434,-0.97812],[-80.26397,-0.97814],[-80.26392,-0.97876]]],[[[-80.51826,-0.79611],[-80.51683,-0.79693],[-80.51656,-0.79836],[-80.51685,-0.79878],[-80.51839,-0.79906],[-80.51834,-0.80028],[-80.5172,-0.80151],[-80.51504,-0.80162],[-80.51456,-0.80215],[-80.51508,-0.80272],[-80.51758,-0.80247],[-80.51824,-0.80302],[-80.51797,-0.80356],[-80.51618,-0.80361],[-80.51506,-0.80442],[-80.51596,-0.80525],[-80.51607,-0.80806],[-80.51713,-0.80942],[-80.5158,-0.81123],[-80.51565,-0.81374],[-80.51484,-0.81413],[-80.51312,-0.81373],[-80.51285,-0.81412],[-80.51352,-0.81547],[-80.51457,-0.81563],[-80.51555,-0.81527],[-80.51567,-0.81605],[-80.51483,-0.81698],[-80.51472,-0.81807],[-80.51261,-0.81691],[-80.51224,-0.8159],[-80.51134,-0.81626],[-80.51088,-0.81757],[-80.51209,-0.82084],[-80.51288,-0.82158],[-80.51448,-0.82222],[-80.51486,-0.82284],[-80.51396,-0.82339],[-80.51173,-0.82341],[-80.51203,-0.82417],[-80.51299,-0.82405],[-80.51341,-0.82463],[-80.51265,-0.82549],[-80.51146,-0.82536],[-80.51043,-0.82666],[-80.51098,-0.82725],[-80.51129,-0.82652],[-80.51183,-0.82669],[-80.51232,-0.82802],[-80.5112,-0.82854],[-80.51039,-0.8284],[-80.50977,-0.82977],[-80.51136,-0.83074],[-80.51108,-0.83251],[-80.51058,-0.8326],[-80.50998,-0.83103],[-80.50929,-0.83089],[-80.50881,-0.83122],[-80.50879,-0.83154],[-80.50949,-0.83182],[-80.50951,-0.83227],[-80.50898,-0.83244],[-80.50985,-0.83316],[-80.50933,-0.835],[-80.50866,-0.83494],[-80.50882,-0.83414],[-80.50829,-0.83378],[-80.508,-0.83446],[-80.50682,-0.83518],[-80.50565,-0.83424],[-80.50635,-0.83365],[-80.50616,-0.83299],[-80.50515,-0.83369],[-80.5053,-0.83455],[-80.50434,-0.83451],[-80.50459,-0.83524],[-80.50412,-0.83693],[-80.50289,-0.83781],[-80.50252,-0.83857],[-80.50377,-0.83905],[-80.50416,-0.83986],[-80.50336,-0.84065],[-80.50238,-0.84035],[-80.50252,-0.84126],[-80.50321,-0.84156],[-80.50263,-0.84226],[-80.50196,-0.84248],[-80.50234,-0.8432],[-80.50144,-0.84327],[-80.50222,-0.84441],[-80.50191,-0.84486],[-80.50262,-0.84533],[-80.50138,-0.84671],[-80.50079,-0.84689],[-80.50093,-0.84568],[-80.49934,-0.84611],[-80.49908,-0.84714],[-80.50132,-0.84772],[-80.49957,-0.84917],[-80.49859,-0.84924],[-80.49847,-0.84961],[-80.49947,-0.85075],[-80.49954,-0.85129],[-80.49817,-0.85161],[-80.49797,-0.85319],[-80.49712,-0.85383],[-80.49682,-0.85316],[-80.49623,-0.85352],[-80.49476,-0.8528],[-80.49413,-0.85337],[-80.49387,-0.85575],[-80.49307,-0.85597],[-80.49345,-0.85687],[-80.49338,-0.85839],[-80.49429,-0.85909],[-80.49395,-0.85961],[-80.49328,-0.85975],[-80.49382,-0.86107],[-80.49299,-0.86232],[-80.49334,-0.86326],[-80.49184,-0.8635],[-80.49176,-0.86403],[-80.49267,-0.86464],[-80.4937,-0.86457],[-80.49372,-0.86573],[-80.49784,-0.86519],[-80.49809,-0.86579],[-80.49887,-0.8656],[-80.50064,-0.86902],[-80.49904,-0.8704],[-80.50077,-0.87165],[-80.50248,-0.87095],[-80.50573,-0.88014],[-80.50532,-0.88182],[-80.50354,-0.88513],[-80.50475,-0.88551],[-80.50541,-0.88628],[-80.50771,-0.88711],[-80.50833,-0.8889],[-80.50801,-0.89104],[-80.50622,-0.89323],[-80.50636,-0.89524],[-80.5071,-0.89603],[-80.5098,-0.89627],[-80.51125,-0.89914],[-80.51138,-0.90254],[-80.5131,-0.90542],[-80.51421,-0.90629],[-80.51543,-0.90658],[-80.51729,-0.90846],[-80.51965,-0.90914],[-80.52087,-0.90895],[-80.5227,-0.90978],[-80.52479,-0.91288],[-80.52706,-0.91428],[-80.53269,-0.9211],[-80.537,-0.92128],[-80.53943,-0.9206],[-80.53869,-0.9233],[-80.54,-0.92823],[-80.54203,-0.92878],[-80.54367,-0.93292],[-80.54476,-0.93428],[-80.54573,-0.93471],[-80.54529,-0.93588],[-80.54548,-0.93865],[-80.54256,-0.94028],[-80.5423,-0.94199],[-80.54115,-0.94432],[-80.54019,-0.94521],[-80.54276,-0.94613],[-80.5439,-0.94716],[-80.54314,-0.94943],[-80.54294,-0.95145],[-80.54223,-0.95308],[-80.54415,-0.95393],[-80.54762,-0.95346],[-80.54941,-0.95495],[-80.54953,-0.95603],[-80.55025,-0.95648],[-80.55282,-0.95606],[-80.55514,-0.95459],[-80.55597,-0.95448],[-80.55945,-0.95202],[-80.56117,-0.95192],[-80.56235,-0.95108],[-80.56379,-0.94876],[-80.56439,-0.94655],[-80.56609,-0.94556],[-80.56693,-0.9454],[-80.56767,-0.94581],[-80.5685,-0.94549],[-80.57056,-0.94243],[-80.57188,-0.94155],[-80.57389,-0.93928],[-80.57479,-0.93711],[-80.5761,-0.93569],[-80.57894,-0.93606],[-80.57989,-0.93579],[-80.58086,-0.93615],[-80.58125,-0.93576],[-80.58103,-0.93474],[-80.58254,-0.9346],[-80.58348,-0.93401],[-80.58404,-0.93434],[-80.58411,-0.93381],[-80.58324,-0.93336],[-80.58401,-0.93277],[-80.5836,-0.93237],[-80.58452,-0.93134],[-80.58421,-0.93066],[-80.58461,-0.93036],[-80.58349,-0.92998],[-80.58364,-0.92912],[-80.58328,-0.92887],[-80.5846,-0.92912],[-80.58506,-0.9281],[-80.58029,-0.92399],[-80.57462,-0.91764],[-80.56988,-0.91314],[-80.56675,-0.90894],[-80.56027,-0.90218],[-80.55682,-0.89746],[-80.5525,-0.89057],[-80.54778,-0.88445],[-80.54382,-0.87778],[-80.54339,-0.87575],[-80.54155,-0.87204],[-80.53917,-0.86594],[-80.53724,-0.85871],[-80.53436,-0.85138],[-80.5287,-0.83253],[-80.52534,-0.81743],[-80.52255,-0.80029],[-80.52228,-0.79979],[-80.52008,-0.79848],[-80.52018,-0.79752],[-80.51895,-0.79632],[-80.51826,-0.79611]]]]},"properties":{"circunscripcion":"CIRCUNSCRIPCION RURAL","circunscripcion_norm":"CIRCUNSCRIPCION RURAL","label":"Circunscripci\u00f3n Rural","short_label":"Rural","canton":"PORTOVIEJO","parroquias":"ABDON CALDERON, ALHAJUELA / BAJO GRANDE, CRUCITA, RIO CHICO, SAN PLACIDO","color":"#d97706","muestras":6,"cuota_casos":60,"center":[-1.01592,-80.30455],"bbox":[[-1.11583,-80.58506],[-0.79611,-80.00637]]}}]}