{"type":"FeatureCollection","features":[{"type":"Feature","geometry":{"type":"Polygon","coordinates":[[[-77.90181,0.57544],[-77.90021,0.57512],[-77.89342,0.56779],[-77.89121,0.56801],[-77.88522,0.56295],[-77.88534,0.55801],[-77.88419,0.55564],[-77.88589,0.55032],[-77.88392,0.54316],[-77.87994,0.53858],[-77.87862,0.53414],[-77.87968,0.53289],[-77.87899,0.52894],[-77.88038,0.52767],[-77.88054,0.52411],[-77.87532,0.51846],[-77.87605,0.51547],[-77.87348,0.51256],[-77.87344,0.50584],[-77.87181,0.50166],[-77.87301,0.49537],[-77.87165,0.49306],[-77.87172,0.48798],[-77.87014,0.4827],[-77.86632,0.48253],[-77.86405,0.48594],[-77.85969,0.48716],[-77.85922,0.49001],[-77.85759,0.49232],[-77.85644,0.49218],[-77.85776,0.48187],[-77.86137,0.47728],[-77.85947,0.47239],[-77.86044,0.47052],[-77.85892,0.47024],[-77.85563,0.47247],[-77.85322,0.47174],[-77.85246,0.46986],[-77.84967,0.46844],[-77.84795,0.46262],[-77.84237,0.45925],[-77.84091,0.45526],[-77.83519,0.45154],[-77.8286,0.44956],[-77.82221,0.44188],[-77.81887,0.43315],[-77.82785,0.43791],[-77.83998,0.43255],[-77.84551,0.43162],[-77.85121,0.42796],[-77.85825,0.43243],[-77.86377,0.43191],[-77.86536,0.43397],[-77.86651,0.43229],[-77.86925,0.43258],[-77.87067,0.43457],[-77.87272,0.43439],[-77.87424,0.43601],[-77.87569,0.43457],[-77.88081,0.43709],[-77.88596,0.44229],[-77.88911,0.44049],[-77.89146,0.44066],[-77.89754,0.44515],[-77.90299,0.44339],[-77.90772,0.44423],[-77.91155,0.4416],[-77.92274,0.45179],[-77.9251,0.46419],[-77.93059,0.46762],[-77.93355,0.47181],[-77.9298,0.48175],[-77.93148,0.48627],[-77.92943,0.49761],[-77.93318,0.50856],[-77.93125,0.51452],[-77.934,0.52072],[-77.93357,0.52879],[-77.93068,0.53849],[-77.90734,0.55],[-77.91067,0.55029],[-77.91187,0.55165],[-77.91332,0.56681],[-77.9156,0.57034],[-77.91516,0.57538],[-77.91765,0.58342],[-77.91709,0.58848],[-77.91466,0.58832],[-77.91315,0.58278],[-77.90972,0.57963],[-77.90181,0.57544]]]},"properties":{"PROVINCIA":"CARCHI","CANTON":"BOL\u00cdVAR","PARROQUIA":"BOL\u00cdVAR","NUM_SECTORES":2,"CASOS":20,"CIRCUNSCRIPCION":"CIRCUNSCRIPCI\u00d3N URBANA","TIPOLOGIAS":"E, H","ETIQUETA":"BOL\u00cdVAR\n2 sectores (20 casos)"}},{"type":"Feature","geometry":{"type":"Polygon","coordinates":[[[-77.91765,0.58342],[-77.91516,0.57538],[-77.9156,0.57034],[-77.91332,0.56681],[-77.91187,0.55165],[-77.91067,0.55029],[-77.90734,0.55],[-77.93068,0.53849],[-77.94432,0.53377],[-77.95867,0.53168],[-77.96605,0.52457],[-77.96502,0.52131],[-77.96588,0.51492],[-77.96386,0.51207],[-77.96179,0.50105],[-77.96504,0.50075],[-77.96665,0.50182],[-77.97137,0.51146],[-77.97664,0.50707],[-77.98024,0.50642],[-77.98389,0.50358],[-77.98957,0.49681],[-77.9911,0.49153],[-77.99577,0.4884],[-77.99783,0.51295],[-78.00118,0.51447],[-78.0009,0.52033],[-78.00347,0.52507],[-78.00792,0.53119],[-78.01041,0.5315],[-78.01488,0.52909],[-78.02144,0.53102],[-78.01848,0.53661],[-78.01458,0.53855],[-78.01341,0.54279],[-78.01083,0.5461],[-78.01005,0.55079],[-78.00659,0.55195],[-78.00159,0.55596],[-77.99887,0.55639],[-77.99596,0.55942],[-77.9898,0.56107],[-77.99006,0.56393],[-77.98731,0.56453],[-77.98262,0.56934],[-77.98329,0.57507],[-77.9811,0.57809],[-77.97542,0.57164],[-77.97247,0.57241],[-77.96846,0.57149],[-77.96347,0.57436],[-77.95321,0.57064],[-77.94285,0.57583],[-77.93719,0.57682],[-77.93431,0.57563],[-77.93043,0.57779],[-77.92656,0.57813],[-77.92258,0.58146],[-77.91765,0.58342]]]},"properties":{"PROVINCIA":"CARCHI","CANTON":"BOL\u00cdVAR","PARROQUIA":"GARC\u00cdA MORENO","NUM_SECTORES":1,"CASOS":10,"CIRCUNSCRIPCION":"CIRCUNSCRIPCI\u00d3N RURAL","TIPOLOGIAS":"A","ETIQUETA":"GARC\u00cdA MORENO\n1 sectores (10 casos)"}},{"type":"Feature","geometry":{"type":"Polygon","coordinates":[[[-77.93272,0.53187],[-77.934,0.52076],[-77.93125,0.51447],[-77.93318,0.50856],[-77.92943,0.49754],[-77.93148,0.48627],[-77.9298,0.48175],[-77.93355,0.47181],[-77.93059,0.46762],[-77.92512,0.46422],[-77.9244,0.46022],[-77.93518,0.44783],[-77.93387,0.44372],[-77.94156,0.44021],[-77.94578,0.43437],[-77.9501,0.43365],[-77.95317,0.43479],[-77.95807,0.43189],[-77.96168,0.43222],[-77.96305,0.43488],[-77.9724,0.43922],[-77.9734,0.44179],[-77.97758,0.44152],[-77.98692,0.44796],[-77.98942,0.4471],[-77.98554,0.45597],[-77.98725,0.45766],[-77.98494,0.45981],[-77.98665,0.46095],[-77.9868,0.46346],[-77.98532,0.46451],[-77.98753,0.46774],[-77.98726,0.47212],[-77.98913,0.47523],[-77.98859,0.47934],[-77.99178,0.48103],[-77.99041,0.48409],[-77.99102,0.49343],[-77.98389,0.50358],[-77.98024,0.50642],[-77.97664,0.50707],[-77.97137,0.51146],[-77.96665,0.50182],[-77.96504,0.50075],[-77.96179,0.50105],[-77.96386,0.51207],[-77.96588,0.51492],[-77.96502,0.52131],[-77.96605,0.52457],[-77.95867,0.53168],[-77.94432,0.53377],[-77.93068,0.53849],[-77.93272,0.53187]]]},"properties":{"PROVINCIA":"CARCHI","CANTON":"BOL\u00cdVAR","PARROQUIA":"LOS ANDES","NUM_SECTORES":1,"CASOS":10,"CIRCUNSCRIPCION":"CIRCUNSCRIPCI\u00d3N RURAL","TIPOLOGIAS":"D","ETIQUETA":"LOS ANDES\n1 sectores (10 casos)"}},{"type":"Feature","geometry":{"type":"Polygon","coordinates":[[[-77.81903,0.43205],[-77.81894,0.43079],[-77.80741,0.42654],[-77.80724,0.42505],[-77.80404,0.42269],[-77.80692,0.41383],[-77.80905,0.41318],[-77.81236,0.40938],[-77.81336,0.40361],[-77.80288,0.3988],[-77.80091,0.38983],[-77.7963,0.38519],[-77.79778,0.38278],[-77.79552,0.38066],[-77.79894,0.37774],[-77.79719,0.36944],[-77.79891,0.36758],[-77.80226,0.36715],[-77.80675,0.36438],[-77.81292,0.35679],[-77.81104,0.35415],[-77.8127,0.35415],[-77.8157,0.34917],[-77.82212,0.34888],[-77.83186,0.34527],[-77.83291,0.3464],[-77.83312,0.34493],[-77.83476,0.34439],[-77.83626,0.34627],[-77.83594,0.34919],[-77.83854,0.35082],[-77.83736,0.35396],[-77.838,0.3566],[-77.85323,0.36496],[-77.8598,0.37098],[-77.86305,0.376],[-77.86305,0.37976],[-77.86473,0.38114],[-77.87065,0.38167],[-77.87315,0.37988],[-77.87654,0.38306],[-77.8793,0.38317],[-77.88144,0.3865],[-77.8969,0.39005],[-77.90721,0.39864],[-77.90685,0.40616],[-77.89114,0.41643],[-77.88277,0.41531],[-77.87985,0.41648],[-77.88356,0.41043],[-77.88307,0.4072],[-77.88165,0.40588],[-77.87804,0.41176],[-77.87279,0.41618],[-77.87059,0.42376],[-77.8656,0.42403],[-77.86326,0.42588],[-77.85838,0.42546],[-77.85837,0.43243],[-77.85074,0.42796],[-77.84551,0.43162],[-77.83998,0.43255],[-77.82785,0.43791],[-77.81996,0.43403],[-77.81903,0.43205]]]},"properties":{"PROVINCIA":"CARCHI","CANTON":"BOL\u00cdVAR","PARROQUIA":"MONTE OLIVO","NUM_SECTORES":1,"CASOS":10,"CIRCUNSCRIPCION":"CIRCUNSCRIPCI\u00d3N RURAL","TIPOLOGIAS":"A","ETIQUETA":"MONTE OLIVO\n1 sectores (10 casos)"}},{"type":"Feature","geometry":{"type":"Polygon","coordinates":[[[-78.01036,0.53149],[-78.00752,0.53101],[-78.00508,0.52762],[-78.00093,0.52042],[-78.00118,0.51447],[-77.99783,0.51295],[-77.99577,0.4884],[-77.99117,0.49145],[-77.99041,0.48409],[-77.99178,0.48103],[-77.98859,0.47934],[-77.98913,0.47523],[-77.98726,0.47212],[-77.98753,0.46774],[-77.98532,0.46451],[-77.9868,0.46346],[-77.98665,0.46095],[-77.98494,0.45981],[-77.98725,0.45766],[-77.98554,0.45597],[-77.98977,0.44698],[-77.99341,0.44889],[-77.99362,0.4524],[-77.99536,0.45295],[-77.99784,0.46171],[-78.00106,0.46676],[-78.00664,0.46896],[-78.00709,0.47092],[-78.0111,0.47356],[-78.02393,0.47121],[-78.03571,0.47402],[-78.0456,0.47163],[-78.05284,0.47513],[-78.05818,0.47379],[-78.06126,0.47506],[-78.06722,0.47374],[-78.074,0.47533],[-78.06973,0.48007],[-78.06592,0.48162],[-78.06498,0.48485],[-78.06131,0.48787],[-78.06007,0.49089],[-78.0522,0.49569],[-78.05193,0.50602],[-78.04817,0.51055],[-78.04674,0.51512],[-78.04185,0.51764],[-78.03946,0.51742],[-78.0362,0.52487],[-78.03321,0.52611],[-78.03039,0.52452],[-78.02661,0.52477],[-78.02351,0.52714],[-78.02144,0.53102],[-78.01484,0.52909],[-78.01036,0.53149]]]},"properties":{"PROVINCIA":"CARCHI","CANTON":"BOL\u00cdVAR","PARROQUIA":"SAN VICENTE DE PUSIR","NUM_SECTORES":1,"CASOS":10,"CIRCUNSCRIPCION":"CIRCUNSCRIPCI\u00d3N RURAL","TIPOLOGIAS":"C","ETIQUETA":"SAN VICENTE DE PUSIR\n1 sectores (10 casos)"}},{"type":"Feature","geometry":{"type":"Polygon","coordinates":[[[-77.92274,0.45179],[-77.91155,0.4416],[-77.90772,0.44423],[-77.90299,0.44339],[-77.89762,0.44517],[-77.89146,0.44066],[-77.88911,0.44049],[-77.88596,0.44229],[-77.88081,0.43709],[-77.87565,0.43455],[-77.87424,0.43601],[-77.87272,0.43439],[-77.87067,0.43457],[-77.86925,0.43258],[-77.86651,0.43229],[-77.86536,0.43397],[-77.86377,0.43191],[-77.85837,0.43243],[-77.85838,0.42546],[-77.86326,0.42588],[-77.8656,0.42403],[-77.87059,0.42376],[-77.87279,0.41618],[-77.87804,0.41176],[-77.88165,0.40588],[-77.88307,0.4072],[-77.88356,0.41043],[-77.87985,0.41648],[-77.88277,0.41531],[-77.89094,0.41645],[-77.90685,0.40616],[-77.90721,0.39864],[-77.9112,0.3979],[-77.91645,0.40118],[-77.924,0.40165],[-77.92479,0.40473],[-77.92937,0.40879],[-77.9316,0.4158],[-77.9362,0.42067],[-77.93744,0.42406],[-77.94339,0.4272],[-77.94488,0.43149],[-77.9501,0.43371],[-77.94585,0.43432],[-77.94156,0.44021],[-77.93397,0.44361],[-77.93518,0.44783],[-77.92446,0.46018],[-77.92274,0.45179]]]},"properties":{"PROVINCIA":"CARCHI","CANTON":"BOL\u00cdVAR","PARROQUIA":"SAN RAFAEL","NUM_SECTORES":1,"CASOS":10,"CIRCUNSCRIPCION":"CIRCUNSCRIPCI\u00d3N RURAL","TIPOLOGIAS":"B","ETIQUETA":"SAN RAFAEL\n1 sectores (10 casos)"}},{"type":"Feature","geometry":{"type":"Polygon","coordinates":[[[-77.98021,0.57899],[-77.97783,0.5854],[-77.97282,0.58734],[-77.96855,0.59175],[-77.96458,0.5919],[-77.96354,0.59338],[-77.96085,0.59371],[-77.95842,0.59627],[-77.97005,0.60204],[-77.96303,0.61915],[-77.98873,0.62652],[-77.98824,0.63159],[-77.99054,0.64326],[-77.98979,0.64617],[-77.99227,0.64646],[-77.99964,0.64268],[-78.002,0.65138],[-78.01055,0.65171],[-78.01659,0.66036],[-78.02198,0.65507],[-78.02667,0.65581],[-78.03216,0.65311],[-78.03292,0.65051],[-78.03451,0.65013],[-78.03441,0.64733],[-78.0367,0.64308],[-78.04373,0.64094],[-78.0483,0.63497],[-78.05286,0.63284],[-78.05483,0.63318],[-78.05353,0.63887],[-78.05087,0.6423],[-78.05223,0.64741],[-78.05118,0.65097],[-78.04693,0.65774],[-78.04461,0.65925],[-78.04364,0.66411],[-78.04137,0.66479],[-78.03774,0.67163],[-78.03869,0.67888],[-78.04141,0.68264],[-78.04003,0.68939],[-78.04471,0.69647],[-78.04319,0.70465],[-78.04594,0.70651],[-78.04732,0.70958],[-78.0466,0.71429],[-78.04476,0.71512],[-78.04479,0.71718],[-78.04699,0.71898],[-78.0462,0.7218],[-78.04819,0.7272],[-78.05033,0.72626],[-78.05055,0.72755],[-78.04291,0.7293],[-78.04013,0.72822],[-78.03699,0.73444],[-78.03063,0.73538],[-78.02663,0.73462],[-78.02546,0.71844],[-78.01884,0.71266],[-78.01339,0.70386],[-78.00948,0.70162],[-78.00933,0.6998],[-78.00462,0.69615],[-78.00408,0.69443],[-77.99838,0.69208],[-77.99541,0.68733],[-77.99167,0.68629],[-77.98935,0.68405],[-77.98814,0.67793],[-77.98925,0.67676],[-77.98921,0.6688],[-77.97927,0.66151],[-77.97562,0.65476],[-77.97325,0.65384],[-77.97286,0.64997],[-77.96954,0.64632],[-77.96935,0.64257],[-77.96628,0.64142],[-77.9654,0.64301],[-77.96253,0.64279],[-77.95969,0.64664],[-77.95597,0.6455],[-77.95376,0.64962],[-77.95016,0.64882],[-77.94687,0.6449],[-77.93979,0.64208],[-77.93554,0.63656],[-77.92998,0.63681],[-77.92804,0.63888],[-77.92805,0.64283],[-77.92363,0.64586],[-77.92325,0.65066],[-77.92186,0.6517],[-77.90908,0.64636],[-77.90462,0.64785],[-77.89234,0.64554],[-77.89346,0.64656],[-77.8919,0.65057],[-77.89803,0.65377],[-77.89889,0.6584],[-77.89141,0.65914],[-77.8883,0.66128],[-77.88773,0.66419],[-77.88299,0.66639],[-77.88064,0.66599],[-77.87979,0.67007],[-77.8806,0.67321],[-77.87907,0.67653],[-77.87156,0.6776],[-77.86774,0.68148],[-77.86695,0.68474],[-77.86459,0.68564],[-77.86516,0.68741],[-77.86277,0.68733],[-77.87488,0.65352],[-77.88074,0.64627],[-77.89377,0.6191],[-77.90278,0.6161],[-77.90939,0.61118],[-77.9135,0.60379],[-77.91643,0.59075],[-77.91466,0.58832],[-77.91717,0.58832],[-77.91723,0.5835],[-77.92258,0.58146],[-77.92656,0.57813],[-77.93043,0.57779],[-77.93431,0.57563],[-77.93719,0.57682],[-77.94285,0.57583],[-77.95335,0.57063],[-77.96347,0.57436],[-77.96846,0.57149],[-77.97247,0.57241],[-77.97542,0.57164],[-77.9811,0.57809],[-77.98021,0.57899]]]},"properties":{"PROVINCIA":"CARCHI","CANTON":"ESPEJO","PARROQUIA":"EL \u00c1NGEL","NUM_SECTORES":3,"CASOS":30,"CIRCUNSCRIPCION":"CIRCUNSCRIPCI\u00d3N URBANA","TIPOLOGIAS":"B, C, D","ETIQUETA":"EL \u00c1NGEL\n3 sectores (30 casos)"}},{"type":"Feature","geometry":{"type":"Polygon","coordinates":[[[-78.04933,0.7688],[-78.04224,0.76254],[-78.02962,0.75767],[-78.02321,0.74891],[-78.01427,0.74363],[-78.00673,0.74711],[-78.00405,0.7466],[-78.00211,0.74431],[-77.99532,0.74517],[-77.99471,0.74756],[-77.98837,0.75164],[-77.98564,0.76037],[-77.97358,0.75247],[-77.96166,0.75392],[-77.9582,0.75261],[-77.9541,0.74689],[-77.95361,0.74358],[-77.94364,0.74339],[-77.9399,0.74711],[-77.93908,0.75359],[-77.93721,0.75278],[-77.93683,0.7489],[-77.93333,0.74433],[-77.92455,0.73939],[-77.90796,0.72283],[-77.89064,0.7139],[-77.88678,0.70606],[-77.87949,0.70601],[-77.87687,0.70109],[-77.87346,0.70153],[-77.87019,0.69882],[-77.86783,0.69847],[-77.86277,0.68733],[-77.86516,0.68741],[-77.86459,0.68564],[-77.86695,0.68474],[-77.86774,0.68148],[-77.87156,0.6776],[-77.87907,0.67653],[-77.8806,0.67321],[-77.87979,0.67007],[-77.88064,0.66599],[-77.88299,0.66639],[-77.88773,0.66419],[-77.8883,0.66128],[-77.89141,0.65914],[-77.89889,0.6584],[-77.89803,0.65377],[-77.8919,0.65057],[-77.89346,0.64656],[-77.89234,0.64554],[-77.90462,0.64785],[-77.90908,0.64636],[-77.92186,0.6517],[-77.92325,0.65066],[-77.92363,0.64586],[-77.92805,0.64283],[-77.92804,0.63888],[-77.92998,0.63681],[-77.93263,0.63624],[-77.93554,0.63656],[-77.93979,0.64208],[-77.94687,0.6449],[-77.95016,0.64882],[-77.95376,0.64962],[-77.95597,0.6455],[-77.95969,0.64664],[-77.96253,0.64279],[-77.9654,0.64301],[-77.966,0.64141],[-77.96826,0.64202],[-77.96937,0.64262],[-77.96997,0.64755],[-77.97286,0.64997],[-77.97359,0.65434],[-77.97562,0.65476],[-77.97933,0.66157],[-77.98921,0.6688],[-77.98925,0.67676],[-77.98814,0.67793],[-77.98935,0.68405],[-77.99167,0.68629],[-77.99541,0.68733],[-77.99838,0.69208],[-78.00408,0.69443],[-78.00462,0.69615],[-78.00933,0.6998],[-78.00948,0.70162],[-78.01339,0.70386],[-78.01884,0.71266],[-78.02546,0.71844],[-78.02663,0.73462],[-78.03063,0.73538],[-78.03699,0.73444],[-78.04013,0.72822],[-78.04291,0.7293],[-78.05055,0.72755],[-78.04881,0.73368],[-78.04546,0.73888],[-78.05049,0.75477],[-78.04771,0.76207],[-78.05044,0.76958],[-78.04933,0.7688]]]},"properties":{"PROVINCIA":"CARCHI","CANTON":"ESPEJO","PARROQUIA":"LA LIBERTAD","NUM_SECTORES":1,"CASOS":10,"CIRCUNSCRIPCION":"CIRCUNSCRIPCI\u00d3N RURAL","TIPOLOGIAS":"F","ETIQUETA":"LA LIBERTAD\n1 sectores (10 casos)"}},{"type":"Feature","geometry":{"type":"Polygon","coordinates":[[[-78.01305,0.65404],[-78.00935,0.65132],[-78.00358,0.65221],[-78.002,0.65138],[-77.99964,0.64268],[-77.99227,0.64646],[-77.98973,0.6461],[-77.99055,0.64334],[-77.98824,0.63159],[-77.98873,0.62652],[-77.96303,0.61915],[-77.97005,0.60204],[-77.95842,0.59627],[-77.96085,0.59371],[-77.96354,0.59338],[-77.96458,0.5919],[-77.96855,0.59175],[-77.97282,0.58734],[-77.97783,0.5854],[-77.98021,0.57899],[-77.98322,0.57534],[-77.98257,0.56944],[-77.98519,0.56673],[-77.98628,0.57081],[-77.9883,0.57234],[-77.99777,0.57182],[-78.00555,0.56897],[-78.01037,0.57085],[-78.01673,0.56665],[-78.02273,0.55849],[-78.02815,0.55856],[-78.03079,0.55646],[-78.03223,0.55722],[-78.03069,0.56262],[-78.03096,0.57182],[-78.02567,0.57924],[-78.02259,0.58815],[-78.0239,0.59351],[-78.02229,0.60138],[-78.01812,0.60521],[-78.01635,0.6116],[-78.00651,0.61972],[-78.0047,0.62005],[-78.00331,0.62333],[-78.01196,0.6276],[-78.01866,0.63641],[-78.02381,0.63633],[-78.03647,0.64362],[-78.03441,0.64733],[-78.03451,0.65013],[-78.03292,0.65051],[-78.03216,0.65311],[-78.02747,0.65554],[-78.02198,0.65507],[-78.01659,0.66036],[-78.01305,0.65404]]]},"properties":{"PROVINCIA":"CARCHI","CANTON":"ESPEJO","PARROQUIA":"SAN ISIDRO","NUM_SECTORES":1,"CASOS":10,"CIRCUNSCRIPCION":"CIRCUNSCRIPCI\u00d3N RURAL","TIPOLOGIAS":"G","ETIQUETA":"SAN ISIDRO\n1 sectores (10 casos)"}},{"type":"Feature","geometry":{"type":"Polygon","coordinates":[[[-78.03467,0.64222],[-78.02379,0.63632],[-78.01866,0.63641],[-78.01196,0.6276],[-78.0033,0.62315],[-78.0047,0.62005],[-78.01627,0.61169],[-78.01814,0.60518],[-78.02229,0.60138],[-78.0239,0.59351],[-78.02258,0.58818],[-78.02567,0.57924],[-78.03096,0.57182],[-78.03069,0.56262],[-78.03216,0.55696],[-78.03005,0.55656],[-78.02815,0.55856],[-78.02273,0.55849],[-78.01673,0.56665],[-78.01037,0.57085],[-78.00555,0.56897],[-77.99777,0.57182],[-77.9883,0.57234],[-77.98628,0.57081],[-77.98519,0.56673],[-77.98733,0.56452],[-77.99007,0.56392],[-77.98983,0.56105],[-77.99596,0.55942],[-77.99887,0.55639],[-78.00159,0.55596],[-78.00659,0.55195],[-78.01001,0.55082],[-78.01083,0.5461],[-78.01341,0.54279],[-78.01458,0.53855],[-78.01849,0.5366],[-78.02358,0.52706],[-78.02779,0.52452],[-78.03319,0.52611],[-78.03611,0.52493],[-78.03955,0.51734],[-78.04185,0.51764],[-78.04675,0.51511],[-78.04817,0.51055],[-78.05196,0.50595],[-78.05219,0.49571],[-78.06007,0.49089],[-78.06131,0.48787],[-78.06498,0.48485],[-78.06594,0.4816],[-78.06973,0.48007],[-78.074,0.47533],[-78.07784,0.4785],[-78.08552,0.47821],[-78.08578,0.47962],[-78.08979,0.47877],[-78.09603,0.48415],[-78.09757,0.4887],[-78.10081,0.49184],[-78.10015,0.4944],[-78.10302,0.49361],[-78.10447,0.49544],[-78.10402,0.49896],[-78.10559,0.50076],[-78.09427,0.50408],[-78.09315,0.5097],[-78.09113,0.51066],[-78.08992,0.52209],[-78.09195,0.53421],[-78.09037,0.53478],[-78.09169,0.5422],[-78.08999,0.54476],[-78.09154,0.54587],[-78.08823,0.55279],[-78.08892,0.55576],[-78.07852,0.55763],[-78.07511,0.56353],[-78.07266,0.56461],[-78.06803,0.57062],[-78.0673,0.57223],[-78.06875,0.57181],[-78.07378,0.57692],[-78.07,0.57717],[-78.07137,0.58285],[-78.06537,0.58386],[-78.06826,0.58985],[-78.0632,0.59203],[-78.06025,0.5956],[-78.0529,0.59783],[-78.04826,0.6013],[-78.04419,0.60243],[-78.04016,0.60963],[-78.04915,0.61096],[-78.05204,0.61265],[-78.06268,0.6129],[-78.06224,0.6146],[-78.0597,0.61604],[-78.06038,0.61746],[-78.05788,0.62113],[-78.05837,0.62345],[-78.05644,0.62656],[-78.0576,0.62854],[-78.05444,0.63257],[-78.04827,0.63499],[-78.04368,0.64097],[-78.03647,0.64362],[-78.03467,0.64222]]]},"properties":{"PROVINCIA":"CARCHI","CANTON":"MIRA","PARROQUIA":"MIRA","NUM_SECTORES":3,"CASOS":30,"CIRCUNSCRIPCION":"CIRCUNSCRIPCI\u00d3N URBANA","TIPOLOGIAS":"A, F, H","ETIQUETA":"MIRA\n3 sectores (30 casos)"}},{"type":"Feature","geometry":{"type":"Polygon","coordinates":[[[-78.05637,0.72961],[-78.05055,0.72755],[-78.0505,0.72628],[-78.04819,0.7272],[-78.04632,0.72231],[-78.04725,0.71991],[-78.04458,0.71578],[-78.0466,0.71429],[-78.04726,0.70922],[-78.04594,0.70651],[-78.04319,0.70465],[-78.04471,0.69647],[-78.04003,0.68939],[-78.04141,0.68264],[-78.03869,0.67888],[-78.03774,0.67163],[-78.04137,0.66479],[-78.04364,0.66411],[-78.04461,0.65925],[-78.04693,0.65774],[-78.05119,0.65094],[-78.05223,0.64741],[-78.05087,0.6423],[-78.05354,0.63884],[-78.05412,0.63268],[-78.0576,0.62854],[-78.05644,0.62656],[-78.05837,0.62345],[-78.05788,0.62113],[-78.06038,0.61746],[-78.05972,0.61602],[-78.06224,0.6146],[-78.06385,0.60965],[-78.06798,0.60575],[-78.07773,0.60161],[-78.08614,0.60083],[-78.08944,0.59829],[-78.09326,0.59799],[-78.09541,0.59483],[-78.09873,0.59345],[-78.10278,0.58824],[-78.10614,0.58612],[-78.10956,0.58566],[-78.11084,0.58399],[-78.1181,0.58643],[-78.12598,0.5849],[-78.13161,0.58978],[-78.1294,0.59336],[-78.12973,0.59559],[-78.13869,0.60354],[-78.13282,0.61069],[-78.13384,0.61543],[-78.13588,0.61627],[-78.13572,0.61839],[-78.14048,0.62505],[-78.14371,0.62732],[-78.15068,0.62558],[-78.153,0.6267],[-78.15473,0.63276],[-78.15727,0.63704],[-78.15993,0.63893],[-78.16087,0.64651],[-78.16264,0.64693],[-78.16289,0.65009],[-78.16546,0.65167],[-78.16846,0.65952],[-78.17219,0.66158],[-78.17318,0.66364],[-78.18251,0.66521],[-78.18492,0.66839],[-78.18709,0.66905],[-78.1908,0.68135],[-78.19345,0.68427],[-78.19837,0.68662],[-78.19836,0.68868],[-78.19712,0.68892],[-78.20039,0.69186],[-78.20113,0.70218],[-78.20444,0.70355],[-78.20512,0.71269],[-78.20051,0.71008],[-78.19675,0.71093],[-78.19187,0.7091],[-78.18997,0.7096],[-78.18918,0.70819],[-78.18749,0.70867],[-78.18628,0.70739],[-78.18217,0.70931],[-78.17378,0.70792],[-78.1721,0.70904],[-78.16983,0.70752],[-78.16787,0.70822],[-78.15861,0.70181],[-78.15011,0.7044],[-78.13954,0.70049],[-78.13563,0.70104],[-78.13183,0.69707],[-78.1272,0.6948],[-78.12408,0.68989],[-78.11973,0.68724],[-78.10648,0.68464],[-78.10397,0.683],[-78.09756,0.6869],[-78.08895,0.68977],[-78.08456,0.68937],[-78.08092,0.6845],[-78.07575,0.68362],[-78.06836,0.68597],[-78.06393,0.69111],[-78.06054,0.69244],[-78.06012,0.69705],[-78.06125,0.69934],[-78.06581,0.70283],[-78.06977,0.70912],[-78.05788,0.73005],[-78.05637,0.72961]]]},"properties":{"PROVINCIA":"CARCHI","CANTON":"MIRA","PARROQUIA":"CONCEPCI\u00d3N","NUM_SECTORES":1,"CASOS":10,"CIRCUNSCRIPCION":"CIRCUNSCRIPCI\u00d3N RURAL","TIPOLOGIAS":"C","ETIQUETA":"CONCEPCI\u00d3N\n1 sectores (10 casos)"}},{"type":"Feature","geometry":{"type":"Polygon","coordinates":[[[-78.37824,0.95522],[-78.37009,0.95504],[-78.36616,0.95038],[-78.36638,0.94655],[-78.3608,0.94613],[-78.35838,0.94037],[-78.35824,0.93626],[-78.35663,0.93477],[-78.35704,0.92692],[-78.35483,0.9218],[-78.35444,0.91713],[-78.35232,0.91563],[-78.35312,0.91101],[-78.35076,0.90674],[-78.3501,0.90111],[-78.34579,0.90077],[-78.3415,0.90275],[-78.33868,0.90152],[-78.336,0.90274],[-78.33272,0.90232],[-78.32801,0.89792],[-78.33072,0.89337],[-78.33141,0.88795],[-78.32739,0.89081],[-78.32339,0.89125],[-78.31996,0.88897],[-78.31487,0.88887],[-78.31204,0.88575],[-78.30868,0.88586],[-78.30529,0.88351],[-78.29829,0.88217],[-78.29454,0.8736],[-78.29552,0.87211],[-78.29461,0.86677],[-78.28286,0.86168],[-78.27908,0.86253],[-78.27324,0.86039],[-78.26763,0.86107],[-78.25982,0.86536],[-78.25592,0.86603],[-78.25075,0.86353],[-78.24746,0.86454],[-78.24265,0.85747],[-78.23837,0.85371],[-78.23647,0.84247],[-78.23797,0.8412],[-78.23095,0.84005],[-78.22834,0.8366],[-78.22666,0.83666],[-78.2229,0.84107],[-78.21902,0.84146],[-78.2179,0.84384],[-78.21532,0.84447],[-78.21244,0.84281],[-78.211,0.8446],[-78.20893,0.84487],[-78.20381,0.84204],[-78.2022,0.83782],[-78.1911,0.84029],[-78.18885,0.84299],[-78.18427,0.83873],[-78.18332,0.83646],[-78.18642,0.82671],[-78.18796,0.82629],[-78.19555,0.81381],[-78.20398,0.81273],[-78.21126,0.81013],[-78.21627,0.8061],[-78.21879,0.80189],[-78.21911,0.79873],[-78.21763,0.79598],[-78.2147,0.79415],[-78.21954,0.78378],[-78.21799,0.77976],[-78.21838,0.77714],[-78.21979,0.77682],[-78.21985,0.77386],[-78.22391,0.77309],[-78.22432,0.77198],[-78.21443,0.76429],[-78.17204,0.70903],[-78.17378,0.70792],[-78.18217,0.70931],[-78.18628,0.70739],[-78.18749,0.70867],[-78.18918,0.70819],[-78.18997,0.7096],[-78.19187,0.7091],[-78.19675,0.71093],[-78.20051,0.71008],[-78.20512,0.71269],[-78.20503,0.71474],[-78.20299,0.71572],[-78.20413,0.71789],[-78.21032,0.71914],[-78.21125,0.72394],[-78.2142,0.72387],[-78.21706,0.72839],[-78.21917,0.72789],[-78.21892,0.73098],[-78.22555,0.73385],[-78.22648,0.73609],[-78.23024,0.73812],[-78.2307,0.74073],[-78.23364,0.74442],[-78.23658,0.74533],[-78.24085,0.74433],[-78.24606,0.74693],[-78.25196,0.75321],[-78.25387,0.75898],[-78.25636,0.76194],[-78.26065,0.76186],[-78.26515,0.76767],[-78.26717,0.76716],[-78.26776,0.77038],[-78.26499,0.77248],[-78.26633,0.77884],[-78.27135,0.7844],[-78.27412,0.78537],[-78.27565,0.78324],[-78.27875,0.78407],[-78.28273,0.78655],[-78.28258,0.78908],[-78.28547,0.78886],[-78.28779,0.79298],[-78.28968,0.79168],[-78.29682,0.7949],[-78.30279,0.79235],[-78.30457,0.79737],[-78.30906,0.79884],[-78.31101,0.80492],[-78.31415,0.80426],[-78.31823,0.81019],[-78.31781,0.81224],[-78.32044,0.81356],[-78.32119,0.81598],[-78.32466,0.81641],[-78.32689,0.82009],[-78.33105,0.82199],[-78.3334,0.82046],[-78.33398,0.82219],[-78.3356,0.82267],[-78.33856,0.821],[-78.34028,0.82377],[-78.34341,0.82229],[-78.34328,0.81982],[-78.34566,0.81804],[-78.34564,0.8163],[-78.34849,0.8182],[-78.35322,0.81527],[-78.35549,0.81859],[-78.35984,0.81823],[-78.36234,0.8199],[-78.36113,0.82278],[-78.36397,0.82336],[-78.36439,0.82563],[-78.37162,0.82753],[-78.37452,0.82557],[-78.38191,0.82923],[-78.38674,0.82504],[-78.38846,0.82828],[-78.39147,0.82881],[-78.39272,0.83235],[-78.39536,0.83312],[-78.39882,0.83717],[-78.40042,0.83695],[-78.40187,0.83894],[-78.40509,0.83755],[-78.40383,0.83981],[-78.40458,0.84075],[-78.40758,0.83885],[-78.411,0.84294],[-78.40905,0.84356],[-78.40908,0.84506],[-78.41586,0.84874],[-78.41797,0.8473],[-78.41884,0.84956],[-78.41786,0.85249],[-78.42357,0.85346],[-78.42218,0.85615],[-78.42744,0.85994],[-78.42832,0.86358],[-78.43182,0.86495],[-78.43183,0.86869],[-78.43682,0.86987],[-78.43573,0.87332],[-78.43829,0.87396],[-78.441,0.87158],[-78.44149,0.87391],[-78.44293,0.87468],[-78.44859,0.8754],[-78.45157,0.8745],[-78.4535,0.87599],[-78.45334,0.87905],[-78.45847,0.87977],[-78.4598,0.88501],[-78.45002,0.88591],[-78.4488,0.89165],[-78.4447,0.893],[-78.43999,0.89191],[-78.43857,0.89324],[-78.43446,0.89356],[-78.43534,0.90038],[-78.43431,0.90484],[-78.4335,0.90609],[-78.43131,0.9062],[-78.42758,0.91246],[-78.42833,0.91467],[-78.43488,0.91972],[-78.42697,0.92486],[-78.41473,0.92653],[-78.41551,0.92885],[-78.41284,0.93063],[-78.413,0.93224],[-78.40873,0.93129],[-78.4072,0.93306],[-78.40866,0.93682],[-78.40537,0.93811],[-78.40433,0.94142],[-78.402,0.94333],[-78.39309,0.94811],[-78.38774,0.9558],[-78.38379,0.95814],[-78.38106,0.95767],[-78.37824,0.95522]]]},"properties":{"PROVINCIA":"CARCHI","CANTON":"MIRA","PARROQUIA":"JIJ\u00d3N Y CAAMA\u00d1O","NUM_SECTORES":1,"CASOS":10,"CIRCUNSCRIPCION":"CIRCUNSCRIPCI\u00d3N RURAL","TIPOLOGIAS":"E","ETIQUETA":"JIJ\u00d3N Y CAAMA\u00d1O\n1 sectores (10 casos)"}},{"type":"Feature","geometry":{"type":"Polygon","coordinates":[[[-78.05904,0.61291],[-78.05583,0.61197],[-78.05204,0.61265],[-78.04915,0.61096],[-78.04016,0.60963],[-78.04444,0.60221],[-78.06025,0.5956],[-78.0632,0.59203],[-78.06826,0.58985],[-78.06537,0.58386],[-78.07137,0.58285],[-78.07,0.57717],[-78.07378,0.57692],[-78.06875,0.57181],[-78.0673,0.57223],[-78.06803,0.57062],[-78.07266,0.56461],[-78.07511,0.56353],[-78.07852,0.55763],[-78.08891,0.55578],[-78.08823,0.55279],[-78.09154,0.54587],[-78.08999,0.54476],[-78.09169,0.5422],[-78.09037,0.53478],[-78.09195,0.53421],[-78.08992,0.52209],[-78.09113,0.51066],[-78.09315,0.5097],[-78.09427,0.50408],[-78.09961,0.50291],[-78.10252,0.50085],[-78.10551,0.50141],[-78.10744,0.50641],[-78.11152,0.51062],[-78.11098,0.51312],[-78.1128,0.51603],[-78.11152,0.52045],[-78.11573,0.52225],[-78.11782,0.52112],[-78.1203,0.52166],[-78.12287,0.52322],[-78.12309,0.52532],[-78.12813,0.52694],[-78.12795,0.52941],[-78.12959,0.53032],[-78.12736,0.53513],[-78.12711,0.54096],[-78.13022,0.54255],[-78.13068,0.54659],[-78.12926,0.5479],[-78.13057,0.55233],[-78.12805,0.55461],[-78.1247,0.56348],[-78.12521,0.57075],[-78.12897,0.57718],[-78.13381,0.57954],[-78.13692,0.57965],[-78.1399,0.58373],[-78.14222,0.59061],[-78.13722,0.59493],[-78.13934,0.60041],[-78.13869,0.60354],[-78.12972,0.59558],[-78.1294,0.59336],[-78.13162,0.58981],[-78.12878,0.58638],[-78.12459,0.5844],[-78.11809,0.58643],[-78.11084,0.58399],[-78.10957,0.58566],[-78.10694,0.58576],[-78.10282,0.58821],[-78.0995,0.59278],[-78.09541,0.59483],[-78.09326,0.59799],[-78.08944,0.59829],[-78.08614,0.60083],[-78.07773,0.60161],[-78.07446,0.60386],[-78.06939,0.60504],[-78.06439,0.60894],[-78.0626,0.61277],[-78.05904,0.61291]]]},"properties":{"PROVINCIA":"CARCHI","CANTON":"MIRA","PARROQUIA":"JUAN MONTALVO","NUM_SECTORES":1,"CASOS":10,"CIRCUNSCRIPCION":"CIRCUNSCRIPCI\u00d3N RURAL","TIPOLOGIAS":"G","ETIQUETA":"JUAN MONTALVO\n1 sectores (10 casos)"}},{"type":"Feature","geometry":{"type":"Polygon","coordinates":[[[-77.81378,0.59954],[-77.81144,0.59477],[-77.80694,0.59019],[-77.80708,0.58521],[-77.79934,0.58042],[-77.79761,0.58063],[-77.79694,0.57815],[-77.79082,0.57249],[-77.78735,0.57311],[-77.77641,0.57005],[-77.77733,0.56886],[-77.77633,0.56738],[-77.77879,0.56513],[-77.77768,0.56277],[-77.77875,0.55924],[-77.7781,0.55757],[-77.77701,0.558],[-77.77819,0.55433],[-77.77568,0.5512],[-77.77628,0.5497],[-77.77435,0.54844],[-77.77336,0.54911],[-77.77314,0.54592],[-77.77675,0.54194],[-77.77468,0.53991],[-77.76262,0.53391],[-77.75852,0.53382],[-77.75269,0.53782],[-77.74726,0.53735],[-77.73817,0.53066],[-77.72969,0.52896],[-77.72926,0.52784],[-77.73116,0.52378],[-77.73589,0.52186],[-77.73736,0.51808],[-77.74388,0.50982],[-77.7518,0.50494],[-77.75566,0.49634],[-77.75402,0.49154],[-77.75702,0.48505],[-77.7585,0.48443],[-77.76093,0.47956],[-77.76787,0.47423],[-77.77026,0.47417],[-77.77392,0.47026],[-77.77441,0.46678],[-77.77179,0.46485],[-77.77795,0.46104],[-77.78301,0.46168],[-77.78513,0.46023],[-77.78965,0.46304],[-77.78942,0.46524],[-77.79205,0.46784],[-77.79235,0.47091],[-77.79563,0.47045],[-77.80066,0.47293],[-77.80364,0.47651],[-77.80527,0.48648],[-77.80795,0.48959],[-77.8073,0.49176],[-77.80893,0.49633],[-77.80821,0.50046],[-77.80915,0.50053],[-77.80869,0.50352],[-77.80991,0.50417],[-77.8101,0.50672],[-77.81688,0.51113],[-77.81577,0.51265],[-77.81777,0.51412],[-77.81798,0.51675],[-77.82154,0.51878],[-77.82516,0.52404],[-77.82972,0.52751],[-77.82974,0.52886],[-77.82671,0.53062],[-77.82519,0.53349],[-77.83037,0.54265],[-77.82929,0.55473],[-77.83146,0.55901],[-77.83464,0.56044],[-77.8444,0.55937],[-77.84975,0.56279],[-77.85243,0.56774],[-77.8524,0.5709],[-77.85636,0.57626],[-77.85643,0.57964],[-77.86354,0.58933],[-77.86514,0.59571],[-77.86947,0.59764],[-77.87531,0.60779],[-77.87876,0.60874],[-77.88685,0.60603],[-77.8986,0.60583],[-77.90041,0.60775],[-77.90713,0.609],[-77.90939,0.61118],[-77.90278,0.6161],[-77.89377,0.6191],[-77.88074,0.64627],[-77.87488,0.65352],[-77.86341,0.68552],[-77.85998,0.68119],[-77.85692,0.67952],[-77.85417,0.68001],[-77.85108,0.67765],[-77.852,0.67053],[-77.84507,0.66386],[-77.84406,0.6646],[-77.83974,0.65765],[-77.83634,0.64844],[-77.84241,0.63643],[-77.84167,0.63341],[-77.83688,0.63437],[-77.83348,0.6319],[-77.83134,0.62668],[-77.82843,0.62533],[-77.82892,0.6219],[-77.82487,0.6169],[-77.82429,0.61426],[-77.82593,0.61005],[-77.81818,0.60989],[-77.81378,0.59954]]]},"properties":{"PROVINCIA":"CARCHI","CANTON":"MONT\u00daFAR","PARROQUIA":"SAN GABRIEL","NUM_SECTORES":8,"CASOS":80,"CIRCUNSCRIPCION":"CIRCUNSCRIPCI\u00d3N URBANA","TIPOLOGIAS":"A, B, C, D, E, F, G, H","ETIQUETA":"SAN GABRIEL\n8 sectores (80 casos)"}},{"type":"Feature","geometry":{"type":"Polygon","coordinates":[[[-77.84454,0.68482],[-77.84027,0.67103],[-77.83668,0.6645],[-77.83668,0.66181],[-77.82678,0.64665],[-77.82117,0.645],[-77.82139,0.64231],[-77.81593,0.63904],[-77.81346,0.6334],[-77.81022,0.6303],[-77.80248,0.62649],[-77.80121,0.62246],[-77.79253,0.61628],[-77.78887,0.61534],[-77.7847,0.60897],[-77.78526,0.59912],[-77.77968,0.60275],[-77.77357,0.5997],[-77.77067,0.59622],[-77.76971,0.59101],[-77.77101,0.58785],[-77.76935,0.58611],[-77.7707,0.58165],[-77.76976,0.5791],[-77.77527,0.5759],[-77.77528,0.57274],[-77.77736,0.5717],[-77.77634,0.56995],[-77.78735,0.57311],[-77.79082,0.57249],[-77.79694,0.57815],[-77.79761,0.58063],[-77.79934,0.58042],[-77.80712,0.58525],[-77.80691,0.59012],[-77.8116,0.59502],[-77.81811,0.60983],[-77.82593,0.61005],[-77.8243,0.61453],[-77.82892,0.6219],[-77.82843,0.62533],[-77.83127,0.62659],[-77.83287,0.63116],[-77.83526,0.63362],[-77.83714,0.63439],[-77.84167,0.63341],[-77.84241,0.63643],[-77.83634,0.64844],[-77.83974,0.65765],[-77.84406,0.6646],[-77.84507,0.66386],[-77.852,0.67053],[-77.85108,0.67765],[-77.85417,0.68001],[-77.85692,0.67952],[-77.85998,0.68119],[-77.86341,0.68552],[-77.86277,0.68733],[-77.86148,0.68635],[-77.85416,0.68817],[-77.85467,0.68491],[-77.85375,0.68594],[-77.85063,0.6853],[-77.84936,0.68926],[-77.85006,0.69113],[-77.84454,0.68482]]]},"properties":{"PROVINCIA":"CARCHI","CANTON":"MONT\u00daFAR","PARROQUIA":"CRIST\u00d3BAL COL\u00d3N","NUM_SECTORES":1,"CASOS":10,"CIRCUNSCRIPCION":"CIRCUNSCRIPCI\u00d3N RURAL","TIPOLOGIAS":"B","ETIQUETA":"CRIST\u00d3BAL COL\u00d3N\n1 sectores (10 casos)"}},{"type":"Feature","geometry":{"type":"Polygon","coordinates":[[[-77.90497,0.6081],[-77.90041,0.60775],[-77.8986,0.60583],[-77.88685,0.60603],[-77.87876,0.60874],[-77.87531,0.60779],[-77.86947,0.59764],[-77.86514,0.59571],[-77.86354,0.58933],[-77.85643,0.57964],[-77.85636,0.57626],[-77.8524,0.5709],[-77.85243,0.56774],[-77.84975,0.56279],[-77.8444,0.55937],[-77.83459,0.56043],[-77.83148,0.55903],[-77.82979,0.55647],[-77.83037,0.54265],[-77.82519,0.53345],[-77.82671,0.53062],[-77.82974,0.52886],[-77.82972,0.5275],[-77.82516,0.52404],[-77.82154,0.51878],[-77.81798,0.51675],[-77.81777,0.51412],[-77.81577,0.51265],[-77.81688,0.51113],[-77.8101,0.50672],[-77.80991,0.50417],[-77.80869,0.50352],[-77.80915,0.50053],[-77.80821,0.50046],[-77.80893,0.49633],[-77.8073,0.49176],[-77.80795,0.48959],[-77.80527,0.48648],[-77.80364,0.47651],[-77.80066,0.47293],[-77.79563,0.47045],[-77.79235,0.47091],[-77.79205,0.46784],[-77.78942,0.46524],[-77.78965,0.46304],[-77.78475,0.46017],[-77.78242,0.45515],[-77.78267,0.45285],[-77.78701,0.44687],[-77.79314,0.44457],[-77.79501,0.44056],[-77.79411,0.43498],[-77.79751,0.43157],[-77.80248,0.4303],[-77.80741,0.42654],[-77.81894,0.43079],[-77.82221,0.44188],[-77.82862,0.44958],[-77.83519,0.45154],[-77.84091,0.45526],[-77.84237,0.45925],[-77.84795,0.46262],[-77.84967,0.46844],[-77.85246,0.46986],[-77.85324,0.47175],[-77.85563,0.47247],[-77.85892,0.47024],[-77.86044,0.47052],[-77.85947,0.47239],[-77.86137,0.47728],[-77.85776,0.48187],[-77.85616,0.48843],[-77.85673,0.49238],[-77.85923,0.49],[-77.85971,0.48714],[-77.86346,0.48634],[-77.86658,0.48237],[-77.87014,0.4827],[-77.87172,0.48798],[-77.87165,0.49306],[-77.87301,0.49537],[-77.87181,0.50166],[-77.87344,0.50584],[-77.87348,0.51256],[-77.87605,0.51547],[-77.87532,0.51846],[-77.88054,0.52411],[-77.88038,0.52767],[-77.87899,0.52894],[-77.87968,0.53289],[-77.87862,0.53414],[-77.87994,0.53858],[-77.88392,0.54316],[-77.88589,0.55032],[-77.88419,0.55564],[-77.88534,0.55801],[-77.88524,0.563],[-77.89121,0.56801],[-77.89342,0.56779],[-77.90021,0.57512],[-77.90972,0.57963],[-77.91313,0.58274],[-77.91643,0.59075],[-77.91519,0.59921],[-77.90939,0.61118],[-77.90497,0.6081]]]},"properties":{"PROVINCIA":"CARCHI","CANTON":"MONT\u00daFAR","PARROQUIA":"LA PAZ","NUM_SECTORES":1,"CASOS":10,"CIRCUNSCRIPCION":"CIRCUNSCRIPCI\u00d3N RURAL","TIPOLOGIAS":"D","ETIQUETA":"LA PAZ\n1 sectores (10 casos)"}},{"type":"Feature","geometry":{"type":"Polygon","coordinates":[[[-77.76967,0.69018],[-77.76617,0.6866],[-77.75664,0.68512],[-77.75377,0.68145],[-77.74998,0.67993],[-77.74702,0.68132],[-77.74206,0.67713],[-77.74261,0.6732],[-77.73944,0.6727],[-77.74024,0.66918],[-77.73541,0.66371],[-77.73609,0.65827],[-77.73715,0.65774],[-77.73665,0.65563],[-77.73368,0.65391],[-77.73413,0.65277],[-77.73139,0.64798],[-77.72412,0.64764],[-77.72188,0.64509],[-77.72162,0.64782],[-77.71581,0.65039],[-77.7122,0.64944],[-77.70924,0.65217],[-77.7017,0.64707],[-77.69892,0.6465],[-77.69653,0.64924],[-77.69457,0.6548],[-77.68933,0.65642],[-77.68515,0.65206],[-77.68575,0.64588],[-77.68098,0.64382],[-77.67356,0.64852],[-77.68216,0.64194],[-77.68634,0.64074],[-77.68755,0.62828],[-77.68973,0.62543],[-77.68975,0.62105],[-77.69335,0.61168],[-77.6963,0.60957],[-77.70503,0.60954],[-77.70991,0.60626],[-77.71564,0.60573],[-77.71915,0.60118],[-77.72397,0.59921],[-77.7271,0.60125],[-77.72631,0.60476],[-77.72802,0.60826],[-77.72995,0.60813],[-77.73054,0.60545],[-77.73642,0.60624],[-77.73944,0.60908],[-77.74734,0.61115],[-77.74968,0.60794],[-77.7533,0.60748],[-77.75668,0.60407],[-77.76014,0.60345],[-77.76285,0.59852],[-77.76482,0.59806],[-77.7651,0.60192],[-77.76753,0.60693],[-77.76685,0.60796],[-77.76497,0.60756],[-77.76436,0.60889],[-77.76096,0.60922],[-77.75549,0.6169],[-77.75264,0.61746],[-77.75196,0.62253],[-77.74751,0.62903],[-77.74616,0.63785],[-77.7475,0.64017],[-77.74756,0.64915],[-77.74977,0.6503],[-77.74938,0.6541],[-77.75069,0.65646],[-77.74846,0.6628],[-77.75535,0.66431],[-77.75844,0.66623],[-77.76086,0.67229],[-77.76452,0.67257],[-77.76766,0.67608],[-77.77257,0.67686],[-77.77708,0.68383],[-77.78155,0.6862],[-77.77963,0.68795],[-77.77698,0.6861],[-77.77342,0.68563],[-77.77288,0.69026],[-77.76967,0.69018]]]},"properties":{"PROVINCIA":"CARCHI","CANTON":"SAN PEDRO DE HUACA","PARROQUIA":"HUACA","NUM_SECTORES":2,"CASOS":20,"CIRCUNSCRIPCION":"CIRCUNSCRIPCI\u00d3N URBANA","TIPOLOGIAS":"F, G","ETIQUETA":"HUACA\n2 sectores (20 casos)"}},{"type":"Feature","geometry":{"type":"Polygon","coordinates":[[[-77.68909,0.62003],[-77.68552,0.61588],[-77.67488,0.61502],[-77.67361,0.61266],[-77.67257,0.61346],[-77.65581,0.60406],[-77.65586,0.60311],[-77.6617,0.59875],[-77.66352,0.59445],[-77.66658,0.59437],[-77.67749,0.58462],[-77.6838,0.58092],[-77.69148,0.57143],[-77.70211,0.56645],[-77.71401,0.56927],[-77.71619,0.57174],[-77.71868,0.57038],[-77.71893,0.568],[-77.72431,0.56898],[-77.72608,0.56746],[-77.72855,0.56932],[-77.72998,0.56869],[-77.73154,0.56993],[-77.73115,0.57313],[-77.73348,0.57618],[-77.73289,0.57723],[-77.73687,0.58007],[-77.73909,0.57923],[-77.73658,0.58147],[-77.74208,0.58482],[-77.74202,0.5878],[-77.74357,0.58844],[-77.74377,0.59027],[-77.74588,0.58977],[-77.74478,0.59211],[-77.74262,0.59191],[-77.74027,0.59344],[-77.73819,0.59233],[-77.73669,0.59738],[-77.73798,0.59834],[-77.73774,0.60183],[-77.73975,0.60423],[-77.74467,0.60542],[-77.75512,0.60346],[-77.75648,0.60429],[-77.75342,0.60742],[-77.75,0.60777],[-77.74751,0.61108],[-77.74623,0.61114],[-77.7392,0.60897],[-77.73642,0.60624],[-77.73054,0.60545],[-77.72995,0.60813],[-77.72802,0.60826],[-77.72631,0.60476],[-77.727,0.60105],[-77.72531,0.59942],[-77.7229,0.59932],[-77.71915,0.60118],[-77.71556,0.60576],[-77.70991,0.60626],[-77.70503,0.60954],[-77.6963,0.60957],[-77.69335,0.61168],[-77.68975,0.62105],[-77.68909,0.62003]]]},"properties":{"PROVINCIA":"CARCHI","CANTON":"SAN PEDRO DE HUACA","PARROQUIA":"MARISCAL SUCRE","NUM_SECTORES":1,"CASOS":10,"CIRCUNSCRIPCION":"CIRCUNSCRIPCI\u00d3N RURAL","TIPOLOGIAS":"A","ETIQUETA":"MARISCAL SUCRE\n1 sectores (10 casos)"}}]}