{"type":"FeatureCollection","features":[{"type":"Feature","properties":{"NUM_MUESTRA":1,"PROVINCIA":"CARCHI","CANTON":"BOLÍVAR","PARROQUIA":"BOLÍVAR","CIRCUNSCRIPCION":"CIRCUNSCRIPCIÓN URBANA","TIPOLOGIA":"H","ETIQUETA":"1 | H","COD_SECTOR":"040250001004","POB_T":272,"V_PRES":80,"AREA_KM2":0.0778,"DIST_LIMITE_M":2591.15,"DENS_VIV":1028.28,"DENS_POB":3496.14},"geometry":{"type":"Polygon","coordinates":[[[-77.9067,0.50306],[-77.9058,0.50365],[-77.905,0.50337],[-77.90473,0.50446],[-77.90378,0.50419],[-77.90353,0.50533],[-77.90334,0.50599],[-77.9033,0.50631],[-77.90284,0.50642],[-77.90295,0.50441],[-77.90299,0.50414],[-77.90353,0.502],[-77.90433,0.50216],[-77.90532,0.50241],[-77.9067,0.50306]]]}},{"type":"Feature","properties":{"NUM_MUESTRA":2,"PROVINCIA":"CARCHI","CANTON":"BOLÍVAR","PARROQUIA":"BOLÍVAR","CIRCUNSCRIPCION":"CIRCUNSCRIPCIÓN URBANA","TIPOLOGIA":"E","ETIQUETA":"2 | E","COD_SECTOR":"040250001009","POB_T":262,"V_PRES":91,"AREA_KM2":1.6015,"DIST_LIMITE_M":2300.08,"DENS_VIV":56.82,"DENS_POB":163.6},"geometry":{"type":"Polygon","coordinates":[[[-77.89748,0.49783],[-77.89738,0.49749],[-77.89745,0.49711],[-77.89745,0.49698],[-77.89734,0.49674],[-77.8972,0.49653],[-77.89712,0.49636],[-77.89709,0.49603],[-77.8969,0.49538],[-77.89691,0.49517],[-77.89704,0.4948],[-77.89695,0.49457],[-77.89694,0.49438],[-77.89703,0.49411],[-77.89704,0.49376],[-77.89717,0.49352],[-77.89719,0.49284],[-77.89723,0.49245],[-77.8973,0.49221],[-77.8973,0.49196],[-77.89724,0.49175],[-77.89723,0.49155],[-77.8973,0.49078],[-77.89731,0.48941],[-77.89964,0.48142],[-77.90002,0.48131],[-77.90066,0.4812],[-77.90125,0.48114],[-77.90145,0.48115],[-77.90149,0.48121],[-77.90148,0.48127],[-77.90125,0.48146],[-77.90153,0.48137],[-77.90241,0.48128],[-77.90251,0.48132],[-77.90283,0.48133],[-77.90311,0.48158],[-77.90344,0.4816],[-77.90384,0.48178],[-77.90412,0.4821],[-77.90418,0.48231],[-77.90447,0.48292],[-77.9047,0.48421],[-77.90502,0.48524],[-77.90515,0.48648],[-77.90499,0.4868],[-77.90512,0.4869],[-77.90538,0.48745],[-77.90559,0.48772],[-77.90583,0.48812],[-77.90594,0.48866],[-77.90599,0.48926],[-77.90596,0.48948],[-77.90902,0.49446],[-77.90788,0.49515],[-77.90774,0.49534],[-77.90753,0.49536],[-77.90737,0.49528],[-77.90636,0.49584],[-77.90582,0.49604],[-77.90557,0.49602],[-77.90548,0.49622],[-77.90548,0.49639],[-77.90561,0.49702],[-77.90563,0.49725],[-77.90336,0.49729],[-77.90333,0.4967],[-77.90187,0.49678],[-77.89985,0.4971],[-77.89929,0.49716],[-77.89872,0.49734],[-77.89748,0.49783]]]}},{"type":"Feature","properties":{"NUM_MUESTRA":7,"PROVINCIA":"CARCHI","CANTON":"BOLÍVAR","PARROQUIA":"BOLÍVAR","CIRCUNSCRIPCION":"CIRCUNSCRIPCIÓN URBANA","TIPOLOGIA":"B","ETIQUETA":"7 | B","COD_SECTOR":"040250001007","POB_T":455,"V_PRES":143,"AREA_KM2":1.1001,"DIST_LIMITE_M":566.7,"DENS_VIV":129.99,"DENS_POB":413.6},"geometry":{"type":"Polygon","coordinates":[[[-77.91028,0.49651],[-77.9105,0.49636],[-77.91046,0.49621],[-77.91046,0.49604],[-77.91039,0.49582],[-77.91039,0.49545],[-77.9103,0.49522],[-77.9103,0.49508],[-77.91034,0.49501],[-77.91032,0.49489],[-77.91039,0.49476],[-77.91041,0.49439],[-77.91025,0.49399],[-77.9101,0.49376],[-77.9101,0.49341],[-77.90998,0.49331],[-77.90995,0.4932],[-77.90963,0.49275],[-77.90953,0.49223],[-77.90944,0.49205],[-77.90952,0.49162],[-77.9096,0.4916],[-77.91009,0.49118],[-77.92246,0.47893],[-77.92512,0.47973],[-77.92489,0.47999],[-77.92475,0.48008],[-77.9242,0.48068],[-77.92355,0.48155],[-77.92332,0.48176],[-77.92276,0.48248],[-77.9215,0.48451],[-77.9217,0.48463],[-77.92099,0.48589],[-77.92092,0.48596],[-77.92069,0.48583],[-77.91981,0.48673],[-77.91986,0.48713],[-77.91868,0.48728],[-77.91872,0.48788],[-77.91728,0.48809],[-77.91712,0.48854],[-77.91609,0.48868],[-77.91618,0.48968],[-77.91507,0.49019],[-77.91497,0.4905],[-77.91501,0.49129],[-77.91334,0.49158],[-77.91328,0.49164],[-77.91318,0.49166],[-77.91309,0.49305],[-77.91312,0.49312],[-77.91321,0.49441],[-77.91338,0.49572],[-77.91346,0.49584],[-77.91348,0.49647],[-77.91376,0.49804],[-77.91453,0.49796],[-77.91433,0.499],[-77.91405,0.50013],[-77.91377,0.50067],[-77.91376,0.50089],[-77.91233,0.50127],[-77.91108,0.50156],[-77.9104,0.50107],[-77.90963,0.50115],[-77.90932,0.5013],[-77.90894,0.50098],[-77.90973,0.499],[-77.91003,0.49844],[-77.91009,0.49828],[-77.91019,0.49689],[-77.91022,0.49665],[-77.91028,0.49651]]]}},{"type":"Feature","properties":{"NUM_MUESTRA":3,"PROVINCIA":"CARCHI","CANTON":"BOLÍVAR","PARROQUIA":"GARCÍA MORENO","CIRCUNSCRIPCION":"CIRCUNSCRIPCIÓN RURAL","TIPOLOGIA":"A","ETIQUETA":"3 | A","COD_SECTOR":"040251903001","POB_T":206,"V_PRES":62,"AREA_KM2":0.2104,"DIST_LIMITE_M":1099.17,"DENS_VIV":294.68,"DENS_POB":979.09},"geometry":{"type":"Polygon","coordinates":[[[-77.97195,0.53966],[-77.97183,0.53975],[-77.97166,0.53979],[-77.97149,0.53972],[-77.97108,0.53975],[-77.97076,0.53971],[-77.97058,0.53977],[-77.97024,0.53977],[-77.96983,0.53988],[-77.96959,0.53983],[-77.96911,0.53985],[-77.96879,0.53993],[-77.96813,0.53982],[-77.96778,0.53989],[-77.96662,0.53762],[-77.96956,0.53766],[-77.96967,0.53774],[-77.96974,0.53798],[-77.97012,0.5381],[-77.97021,0.53816],[-77.97026,0.53801],[-77.97027,0.53772],[-77.97034,0.53763],[-77.97036,0.53742],[-77.97047,0.53715],[-77.97043,0.53696],[-77.97046,0.53678],[-77.97101,0.53648],[-77.97152,0.53616],[-77.97343,0.53622],[-77.97352,0.53657],[-77.9734,0.53674],[-77.97333,0.53697],[-77.9733,0.53775],[-77.97341,0.53823],[-77.97359,0.53826],[-77.97312,0.53883],[-77.97292,0.53903],[-77.97307,0.53921],[-77.97293,0.53934],[-77.97298,0.53947],[-77.97273,0.5396],[-77.97271,0.53965],[-77.97263,0.54021],[-77.97238,0.54019],[-77.97169,0.54028],[-77.97198,0.53969],[-77.97195,0.53966]]]}},{"type":"Feature","properties":{"NUM_MUESTRA":4,"PROVINCIA":"CARCHI","CANTON":"BOLÍVAR","PARROQUIA":"LOS ANDES","CIRCUNSCRIPCION":"CIRCUNSCRIPCIÓN RURAL","TIPOLOGIA":"D","ETIQUETA":"4 | D","COD_SECTOR":"040252001001","POB_T":299,"V_PRES":103,"AREA_KM2":0.4214,"DIST_LIMITE_M":239.77,"DENS_VIV":244.42,"DENS_POB":709.54},"geometry":{"type":"Polygon","coordinates":[[[-77.93255,0.49955],[-77.9325,0.49888],[-77.93928,0.49671],[-77.93903,0.4961],[-77.93979,0.49591],[-77.94028,0.49724],[-77.94034,0.49764],[-77.94058,0.49756],[-77.94063,0.49758],[-77.94069,0.49763],[-77.94093,0.49816],[-77.94103,0.49825],[-77.94116,0.49831],[-77.94134,0.49832],[-77.94175,0.49822],[-77.94223,0.49801],[-77.94244,0.49829],[-77.94212,0.49876],[-77.94246,0.49917],[-77.94291,0.50046],[-77.94239,0.50081],[-77.94235,0.50092],[-77.94158,0.50106],[-77.94031,0.50121],[-77.93879,0.50145],[-77.93887,0.50179],[-77.93812,0.50198],[-77.93758,0.50206],[-77.93748,0.50191],[-77.93576,0.50234],[-77.93551,0.50109],[-77.93501,0.49953],[-77.93271,0.50035],[-77.93268,0.50033],[-77.93255,0.49955]]]}},{"type":"Feature","properties":{"NUM_MUESTRA":5,"PROVINCIA":"CARCHI","CANTON":"BOLÍVAR","PARROQUIA":"LOS ANDES","CIRCUNSCRIPCION":"CIRCUNSCRIPCIÓN RURAL","TIPOLOGIA":"A","ETIQUETA":"5 | A","COD_SECTOR":"040252908001","POB_T":266,"V_PRES":80,"AREA_KM2":0.1335,"DIST_LIMITE_M":430.41,"DENS_VIV":599.25,"DENS_POB":1992.51},"geometry":{"type":"Polygon","coordinates":[[[-77.95479,0.44085],[-77.95524,0.44073],[-77.95544,0.44064],[-77.95577,0.4404],[-77.95639,0.43988],[-77.95629,0.43978],[-77.95611,0.43973],[-77.95603,0.43967],[-77.95553,0.43968],[-77.95548,0.43962],[-77.95454,0.43961],[-77.95455,0.43915],[-77.95485,0.4389],[-77.95489,0.43884],[-77.95506,0.43824],[-77.95702,0.43786],[-77.95813,0.4384],[-77.95772,0.43874],[-77.9579,0.44],[-77.95784,0.44015],[-77.9577,0.44111],[-77.95763,0.44136],[-77.95674,0.44262],[-77.95641,0.44299],[-77.95585,0.44369],[-77.95571,0.44339],[-77.95565,0.4431],[-77.9556,0.44202],[-77.95564,0.44186],[-77.95572,0.44176],[-77.95613,0.44138],[-77.95622,0.44123],[-77.95626,0.44105],[-77.95593,0.44105],[-77.95555,0.44112],[-77.95516,0.44128],[-77.95494,0.4413],[-77.95493,0.44104],[-77.95479,0.44085]]]}},{"type":"Feature","properties":{"NUM_MUESTRA":6,"PROVINCIA":"CARCHI","CANTON":"BOLÍVAR","PARROQUIA":"SAN VICENTE DE PUSIR","CIRCUNSCRIPCION":"CIRCUNSCRIPCIÓN RURAL","TIPOLOGIA":"C","ETIQUETA":"6 | C","COD_SECTOR":"040254903001","POB_T":403,"V_PRES":121,"AREA_KM2":0.1612,"DIST_LIMITE_M":902.16,"DENS_VIV":750.62,"DENS_POB":2500.0},"geometry":{"type":"Polygon","coordinates":[[[-78.02302,0.48159],[-78.02372,0.48292],[-78.02364,0.48318],[-78.02353,0.48334],[-78.02347,0.48358],[-78.0234,0.48374],[-78.02252,0.48474],[-78.02205,0.4854],[-78.02208,0.48511],[-78.02202,0.48425],[-78.02188,0.48415],[-78.0218,0.48413],[-78.02168,0.48415],[-78.02158,0.48424],[-78.02128,0.48471],[-78.02118,0.48481],[-78.021,0.48484],[-78.01907,0.48407],[-78.01911,0.48394],[-78.01953,0.48369],[-78.01962,0.4836],[-78.0197,0.48348],[-78.01984,0.48312],[-78.01997,0.48309],[-78.02009,0.48302],[-78.02013,0.48279],[-78.02009,0.48259],[-78.02026,0.48225],[-78.02028,0.48183],[-78.02035,0.48162],[-78.02041,0.48155],[-78.02042,0.48145],[-78.02052,0.48135],[-78.02049,0.48124],[-78.02064,0.48102],[-78.02066,0.48086],[-78.02176,0.48031],[-78.02316,0.48064],[-78.02293,0.48162],[-78.02302,0.48159]]]}},{"type":"Feature","properties":{"NUM_MUESTRA":8,"PROVINCIA":"CARCHI","CANTON":"ESPEJO","PARROQUIA":"EL ÁNGEL","CIRCUNSCRIPCION":"CIRCUNSCRIPCIÓN URBANA","TIPOLOGIA":"D","ETIQUETA":"8 | D","COD_SECTOR":"040350001002","POB_T":322,"V_PRES":101,"AREA_KM2":0.1997,"DIST_LIMITE_M":917.22,"DENS_VIV":505.76,"DENS_POB":1612.42},"geometry":{"type":"Polygon","coordinates":[[[-77.93332,0.6253],[-77.9334,0.62528],[-77.93404,0.62387],[-77.93424,0.62396],[-77.93472,0.62404],[-77.93481,0.62364],[-77.93761,0.62399],[-77.93746,0.62489],[-77.938,0.62495],[-77.93757,0.62834],[-77.93726,0.62842],[-77.93717,0.62841],[-77.9367,0.62819],[-77.93577,0.62808],[-77.93556,0.62809],[-77.93535,0.62797],[-77.93454,0.62725],[-77.93316,0.62564],[-77.93332,0.6253]]]}},{"type":"Feature","properties":{"NUM_MUESTRA":9,"PROVINCIA":"CARCHI","CANTON":"ESPEJO","PARROQUIA":"EL ÁNGEL","CIRCUNSCRIPCION":"CIRCUNSCRIPCIÓN URBANA","TIPOLOGIA":"C","ETIQUETA":"9 | C","COD_SECTOR":"040350001007","POB_T":339,"V_PRES":95,"AREA_KM2":0.343,"DIST_LIMITE_M":1474.61,"DENS_VIV":276.97,"DENS_POB":988.34},"geometry":{"type":"Polygon","coordinates":[[[-77.94191,0.62035],[-77.94231,0.6168],[-77.94297,0.61687],[-77.94305,0.61631],[-77.94345,0.61664],[-77.94437,0.61727],[-77.94443,0.6172],[-77.94498,0.61718],[-77.94531,0.61711],[-77.94579,0.61696],[-77.94622,0.61699],[-77.94639,0.61726],[-77.94641,0.61755],[-77.94673,0.61761],[-77.9466,0.61799],[-77.94708,0.61826],[-77.94762,0.61839],[-77.94776,0.61838],[-77.94794,0.61824],[-77.94939,0.61835],[-77.94976,0.61879],[-77.94979,0.61928],[-77.94949,0.61982],[-77.94941,0.62006],[-77.94912,0.62031],[-77.94956,0.62037],[-77.94957,0.6204],[-77.94951,0.62064],[-77.94944,0.62076],[-77.94929,0.6209],[-77.94931,0.62098],[-77.94911,0.62104],[-77.94881,0.62105],[-77.94826,0.62093],[-77.94629,0.62073],[-77.94611,0.62198],[-77.94395,0.62161],[-77.94425,0.62108],[-77.94392,0.62101],[-77.94378,0.62159],[-77.94258,0.6214],[-77.94271,0.62049],[-77.94191,0.62035]]]}},{"type":"Feature","properties":{"NUM_MUESTRA":10,"PROVINCIA":"CARCHI","CANTON":"ESPEJO","PARROQUIA":"EL ÁNGEL","CIRCUNSCRIPCION":"CIRCUNSCRIPCIÓN URBANA","TIPOLOGIA":"B","ETIQUETA":"10 | B","COD_SECTOR":"040350001011","POB_T":361,"V_PRES":96,"AREA_KM2":0.2246,"DIST_LIMITE_M":1986.2,"DENS_VIV":427.43,"DENS_POB":1607.3},"geometry":{"type":"Polygon","coordinates":[[[-77.9419,0.60302],[-77.94185,0.60817],[-77.94088,0.60798],[-77.94075,0.60854],[-77.94063,0.60888],[-77.94066,0.60891],[-77.94055,0.61122],[-77.94048,0.6123],[-77.9404,0.61289],[-77.93991,0.61425],[-77.93931,0.61407],[-77.93941,0.61372],[-77.93869,0.61361],[-77.93867,0.61234],[-77.9387,0.6123],[-77.93873,0.61198],[-77.93889,0.61158],[-77.93869,0.61069],[-77.93924,0.61071],[-77.93932,0.61026],[-77.93926,0.61006],[-77.93928,0.60991],[-77.93987,0.60985],[-77.93985,0.60973],[-77.93989,0.60935],[-77.93985,0.60906],[-77.93939,0.60899],[-77.93916,0.60892],[-77.93907,0.60869],[-77.93897,0.60864],[-77.93901,0.60854],[-77.9392,0.60849],[-77.93974,0.60851],[-77.9401,0.60848],[-77.94019,0.60852],[-77.94027,0.6085],[-77.94017,0.60819],[-77.93984,0.60796],[-77.93963,0.60774],[-77.93958,0.60761],[-77.93958,0.60751],[-77.93965,0.60739],[-77.93963,0.60735],[-77.93953,0.6073],[-77.93952,0.60718],[-77.93975,0.60687],[-77.9398,0.60675],[-77.93962,0.60674],[-77.93993,0.60607],[-77.94032,0.60467],[-77.94029,0.60445],[-77.94,0.60421],[-77.94035,0.60428],[-77.94038,0.60423],[-77.94019,0.60376],[-77.93983,0.60321],[-77.94017,0.60297],[-77.94003,0.60291],[-77.93965,0.60284],[-77.93964,0.60272],[-77.93967,0.60269],[-77.94004,0.6027],[-77.94038,0.60279],[-77.94167,0.60292],[-77.9419,0.60302]]]}},{"type":"Feature","properties":{"NUM_MUESTRA":11,"PROVINCIA":"CARCHI","CANTON":"ESPEJO","PARROQUIA":"LA LIBERTAD","CIRCUNSCRIPCION":"CIRCUNSCRIPCIÓN RURAL","TIPOLOGIA":"F","ETIQUETA":"11 | F","COD_SECTOR":"040352999007","POB_T":348,"V_PRES":95,"AREA_KM2":0.7404,"DIST_LIMITE_M":1055.06,"DENS_VIV":128.31,"DENS_POB":470.02},"geometry":{"type":"Polygon","coordinates":[[[-77.9374,0.66598],[-77.93777,0.66547],[-77.93779,0.66537],[-77.93769,0.6645],[-77.93769,0.66418],[-77.93772,0.66408],[-77.93782,0.66401],[-77.93819,0.66393],[-77.93825,0.6639],[-77.9383,0.66378],[-77.93789,0.66235],[-77.93741,0.66168],[-77.93724,0.66129],[-77.93723,0.66118],[-77.93733,0.66049],[-77.93754,0.65931],[-77.93752,0.65917],[-77.9374,0.65898],[-77.93711,0.65881],[-77.9368,0.65854],[-77.93669,0.65839],[-77.93663,0.65822],[-77.93674,0.65721],[-77.93683,0.65679],[-77.93694,0.65568],[-77.93722,0.6554],[-77.93734,0.65508],[-77.93742,0.65481],[-77.93735,0.65444],[-77.93741,0.65424],[-77.93831,0.6546],[-77.93934,0.65473],[-77.93914,0.65515],[-77.93891,0.65528],[-77.93871,0.6553],[-77.93863,0.65538],[-77.93864,0.65543],[-77.93868,0.65546],[-77.93894,0.6555],[-77.93927,0.65563],[-77.93937,0.65563],[-77.93954,0.65557],[-77.9399,0.65562],[-77.94015,0.65579],[-77.94051,0.65589],[-77.94068,0.65605],[-77.94106,0.65596],[-77.94145,0.65594],[-77.94169,0.65585],[-77.94176,0.65585],[-77.94202,0.65596],[-77.94225,0.65587],[-77.94257,0.65582],[-77.94267,0.65587],[-77.94265,0.65597],[-77.94268,0.65606],[-77.94263,0.65615],[-77.94269,0.65618],[-77.94275,0.65614],[-77.94281,0.65599],[-77.94288,0.65594],[-77.94299,0.65592],[-77.94312,0.65597],[-77.94317,0.6559],[-77.94323,0.6559],[-77.9436,0.65619],[-77.94377,0.65642],[-77.94378,0.65653],[-77.94407,0.65683],[-77.94411,0.65707],[-77.94424,0.65715],[-77.94454,0.65716],[-77.9448,0.65701],[-77.94503,0.65696],[-77.94525,0.65697],[-77.94499,0.6597],[-77.945,0.6615],[-77.94491,0.66149],[-77.94483,0.66154],[-77.94476,0.66181],[-77.9447,0.66186],[-77.94444,0.66183],[-77.94409,0.66191],[-77.94399,0.66198],[-77.94375,0.66222],[-77.9436,0.66231],[-77.9435,0.66233],[-77.94326,0.66231],[-77.94311,0.66238],[-77.9429,0.66229],[-77.94276,0.66235],[-77.94267,0.66225],[-77.94252,0.66221],[-77.94241,0.66221],[-77.94218,0.66232],[-77.94193,0.66237],[-77.94188,0.66261],[-77.94179,0.66271],[-77.94152,0.6628],[-77.94134,0.66297],[-77.94114,0.66294],[-77.94096,0.663],[-77.94085,0.66341],[-77.94087,0.66355],[-77.94028,0.66424],[-77.94003,0.66465],[-77.9394,0.66519],[-77.93899,0.66546],[-77.93883,0.66554],[-77.93794,0.66577],[-77.93758,0.66598],[-77.9374,0.66598]]]}},{"type":"Feature","properties":{"NUM_MUESTRA":12,"PROVINCIA":"CARCHI","CANTON":"ESPEJO","PARROQUIA":"SAN ISIDRO","CIRCUNSCRIPCION":"CIRCUNSCRIPCIÓN RURAL","TIPOLOGIA":"G","ETIQUETA":"12 | G","COD_SECTOR":"040353001004","POB_T":326,"V_PRES":106,"AREA_KM2":0.1725,"DIST_LIMITE_M":1724.01,"DENS_VIV":614.49,"DENS_POB":1889.86},"geometry":{"type":"Polygon","coordinates":[[[-77.98714,0.60604],[-77.98708,0.60351],[-77.98657,0.60356],[-77.98656,0.60388],[-77.98599,0.6039],[-77.98549,0.60311],[-77.98646,0.60277],[-77.98645,0.6027],[-77.98706,0.60239],[-77.98704,0.60185],[-77.98725,0.60185],[-77.98742,0.60096],[-77.98746,0.60096],[-77.98763,0.59995],[-77.9887,0.60005],[-77.98796,0.60098],[-77.98932,0.60112],[-77.98879,0.60248],[-77.98941,0.6027],[-77.98936,0.60291],[-77.98941,0.60307],[-77.9896,0.60322],[-77.99099,0.60398],[-77.99069,0.6046],[-77.99006,0.60534],[-77.98971,0.60583],[-77.989,0.60529],[-77.98851,0.60504],[-77.98793,0.60516],[-77.98781,0.60522],[-77.98753,0.60564],[-77.98714,0.60604]]]}},{"type":"Feature","properties":{"NUM_MUESTRA":16,"PROVINCIA":"CARCHI","CANTON":"MIRA","PARROQUIA":"CONCEPCIÓN","CIRCUNSCRIPCION":"CIRCUNSCRIPCIÓN RURAL","TIPOLOGIA":"C","ETIQUETA":"16 | C","COD_SECTOR":"040451001001","POB_T":186,"V_PRES":58,"AREA_KM2":0.0723,"DIST_LIMITE_M":663.53,"DENS_VIV":802.21,"DENS_POB":2572.61},"geometry":{"type":"Polygon","coordinates":[[[-78.1255,0.60653],[-78.12548,0.60599],[-78.12631,0.60593],[-78.12623,0.60555],[-78.12733,0.60529],[-78.12725,0.60496],[-78.12756,0.60492],[-78.12816,0.60472],[-78.1281,0.60686],[-78.12686,0.60817],[-78.12591,0.6082],[-78.12593,0.60804],[-78.12584,0.60772],[-78.12584,0.60753],[-78.12592,0.60734],[-78.1259,0.60707],[-78.12584,0.60692],[-78.12574,0.60687],[-78.12574,0.60651],[-78.1255,0.60653]]]}},{"type":"Feature","properties":{"NUM_MUESTRA":17,"PROVINCIA":"CARCHI","CANTON":"MIRA","PARROQUIA":"CONCEPCIÓN","CIRCUNSCRIPCION":"CIRCUNSCRIPCIÓN RURAL","TIPOLOGIA":"E","ETIQUETA":"17 | E","COD_SECTOR":"040451001002","POB_T":215,"V_PRES":67,"AREA_KM2":0.0969,"DIST_LIMITE_M":726.22,"DENS_VIV":691.43,"DENS_POB":2218.78},"geometry":{"type":"Polygon","coordinates":[[[-78.12816,0.60472],[-78.12756,0.60492],[-78.12725,0.60496],[-78.12733,0.60529],[-78.12623,0.60555],[-78.12631,0.60593],[-78.12548,0.60599],[-78.1255,0.60653],[-78.125,0.60655],[-78.12513,0.60466],[-78.12487,0.60462],[-78.1248,0.60309],[-78.12637,0.60307],[-78.12762,0.60312],[-78.12783,0.60316],[-78.12818,0.60401],[-78.12816,0.60472]]]}},{"type":"Feature","properties":{"NUM_MUESTRA":18,"PROVINCIA":"CARCHI","CANTON":"MIRA","PARROQUIA":"JUAN MONTALVO","CIRCUNSCRIPCION":"CIRCUNSCRIPCIÓN RURAL","TIPOLOGIA":"G","ETIQUETA":"18 | G","COD_SECTOR":"040453001001","POB_T":511,"V_PRES":168,"AREA_KM2":0.4167,"DIST_LIMITE_M":891.43,"DENS_VIV":403.17,"DENS_POB":1226.3},"geometry":{"type":"Polygon","coordinates":[[[-78.0868,0.58988],[-78.08644,0.59039],[-78.08629,0.59043],[-78.08623,0.59042],[-78.08597,0.59006],[-78.08586,0.59003],[-78.08588,0.58983],[-78.08512,0.58921],[-78.08476,0.58926],[-78.08428,0.58945],[-78.08419,0.58927],[-78.08401,0.58847],[-78.08386,0.58816],[-78.08397,0.58812],[-78.08398,0.58805],[-78.08416,0.58795],[-78.08428,0.58783],[-78.08439,0.58779],[-78.0841,0.58743],[-78.08395,0.58734],[-78.08396,0.58725],[-78.08388,0.58708],[-78.08367,0.58677],[-78.08344,0.5866],[-78.08307,0.58592],[-78.08302,0.5856],[-78.08304,0.58508],[-78.08298,0.58505],[-78.08294,0.58497],[-78.08294,0.58486],[-78.08305,0.5846],[-78.08318,0.5844],[-78.08319,0.58431],[-78.08315,0.58418],[-78.08294,0.58395],[-78.08294,0.58381],[-78.08299,0.5837],[-78.08324,0.5834],[-78.08348,0.5834],[-78.08406,0.58372],[-78.0845,0.5837],[-78.08479,0.5839],[-78.08505,0.58428],[-78.08525,0.58439],[-78.08542,0.58438],[-78.08551,0.58434],[-78.0856,0.58411],[-78.08567,0.58409],[-78.08578,0.58415],[-78.08606,0.58419],[-78.08625,0.58431],[-78.08655,0.58435],[-78.08669,0.58444],[-78.08694,0.58444],[-78.08714,0.58432],[-78.08744,0.58423],[-78.08772,0.58449],[-78.08828,0.58487],[-78.08858,0.58519],[-78.08873,0.58504],[-78.08886,0.58515],[-78.08905,0.58522],[-78.08919,0.58522],[-78.08921,0.58526],[-78.08946,0.58532],[-78.08956,0.58541],[-78.08955,0.58546],[-78.08969,0.58557],[-78.08989,0.5856],[-78.09011,0.58595],[-78.09013,0.58611],[-78.09031,0.58625],[-78.09022,0.58655],[-78.09021,0.58671],[-78.09025,0.58675],[-78.09023,0.58688],[-78.09027,0.58694],[-78.09024,0.58699],[-78.09026,0.58701],[-78.09021,0.58715],[-78.09021,0.58732],[-78.09027,0.58744],[-78.0901,0.58744],[-78.09004,0.58747],[-78.09006,0.58756],[-78.09012,0.58757],[-78.09014,0.58776],[-78.0901,0.58784],[-78.08997,0.58792],[-78.09,0.58804],[-78.08992,0.58818],[-78.08993,0.58831],[-78.08981,0.58851],[-78.08984,0.58868],[-78.08977,0.5887],[-78.08979,0.58874],[-78.08965,0.58881],[-78.08961,0.58874],[-78.08955,0.58885],[-78.08934,0.58904],[-78.08926,0.58928],[-78.0892,0.58961],[-78.0891,0.58974],[-78.08908,0.5899],[-78.089,0.58992],[-78.0889,0.58988],[-78.08862,0.58961],[-78.08864,0.58981],[-78.0885,0.58982],[-78.08835,0.58987],[-78.08827,0.58986],[-78.08813,0.59007],[-78.08803,0.58995],[-78.088,0.58999],[-78.08787,0.58995],[-78.08787,0.5899],[-78.08768,0.58985],[-78.08757,0.58986],[-78.08739,0.58996],[-78.08701,0.59001],[-78.08696,0.5899],[-78.08696,0.58979],[-78.0868,0.58988]]]}},{"type":"Feature","properties":{"NUM_MUESTRA":13,"PROVINCIA":"CARCHI","CANTON":"MIRA","PARROQUIA":"MIRA","CIRCUNSCRIPCION":"CIRCUNSCRIPCIÓN URBANA","TIPOLOGIA":"H","ETIQUETA":"13 | H","COD_SECTOR":"040450902001","POB_T":368,"V_PRES":123,"AREA_KM2":0.3474,"DIST_LIMITE_M":647.31,"DENS_VIV":354.06,"DENS_POB":1059.3},"geometry":{"type":"Polygon","coordinates":[[[-78.05424,0.58439],[-78.05416,0.58451],[-78.05415,0.58465],[-78.05441,0.58526],[-78.05453,0.58545],[-78.05561,0.58608],[-78.05428,0.58829],[-78.05271,0.59185],[-78.05256,0.59184],[-78.05242,0.59174],[-78.05231,0.59169],[-78.05219,0.59169],[-78.05198,0.5916],[-78.05186,0.59151],[-78.05158,0.59115],[-78.05139,0.59077],[-78.05127,0.59083],[-78.05099,0.58999],[-78.05128,0.58935],[-78.05117,0.58929],[-78.05105,0.58913],[-78.0507,0.58894],[-78.05065,0.5889],[-78.05058,0.5887],[-78.05049,0.58873],[-78.0501,0.58872],[-78.04961,0.589],[-78.04968,0.5888],[-78.04962,0.58864],[-78.04952,0.58856],[-78.04951,0.58837],[-78.04958,0.58782],[-78.04955,0.58763],[-78.04959,0.58759],[-78.04957,0.58756],[-78.04963,0.58735],[-78.04966,0.58733],[-78.04971,0.58716],[-78.04964,0.58695],[-78.04911,0.58656],[-78.04983,0.58517],[-78.05022,0.58525],[-78.05093,0.58569],[-78.05195,0.58447],[-78.05274,0.58342],[-78.05297,0.58359],[-78.05311,0.58363],[-78.05385,0.58421],[-78.05417,0.58439],[-78.05424,0.58439]]]}},{"type":"Feature","properties":{"NUM_MUESTRA":14,"PROVINCIA":"CARCHI","CANTON":"MIRA","PARROQUIA":"MIRA","CIRCUNSCRIPCION":"CIRCUNSCRIPCIÓN URBANA","TIPOLOGIA":"F","ETIQUETA":"14 | F","COD_SECTOR":"040450999005","POB_T":213,"V_PRES":72,"AREA_KM2":1.5306,"DIST_LIMITE_M":849.16,"DENS_VIV":47.04,"DENS_POB":139.16},"geometry":{"type":"Polygon","coordinates":[[[-78.03507,0.54858],[-78.03401,0.54746],[-78.03369,0.54765],[-78.03341,0.54771],[-78.03328,0.54768],[-78.0324,0.54734],[-78.03186,0.54722],[-78.03172,0.54724],[-78.03142,0.54745],[-78.03125,0.5475],[-78.02996,0.5458],[-78.02964,0.54526],[-78.02894,0.5446],[-78.02891,0.54451],[-78.02892,0.54436],[-78.02469,0.54107],[-78.02543,0.5409],[-78.0261,0.54067],[-78.02649,0.54062],[-78.02704,0.54061],[-78.02759,0.5407],[-78.02789,0.54083],[-78.02821,0.54103],[-78.02838,0.5411],[-78.02906,0.54111],[-78.02933,0.54118],[-78.02955,0.54131],[-78.02974,0.54132],[-78.03038,0.54111],[-78.03075,0.54104],[-78.03105,0.54093],[-78.03143,0.54087],[-78.03387,0.54014],[-78.03428,0.53997],[-78.03476,0.53971],[-78.03593,0.53889],[-78.03593,0.53884],[-78.03587,0.53883],[-78.03517,0.53916],[-78.03435,0.53941],[-78.03347,0.53956],[-78.03277,0.53957],[-78.03142,0.53945],[-78.03095,0.5393],[-78.03041,0.53903],[-78.03044,0.53897],[-78.03077,0.53891],[-78.03195,0.53836],[-78.03214,0.53811],[-78.03221,0.53807],[-78.03237,0.53809],[-78.03221,0.5382],[-78.03213,0.53833],[-78.0321,0.53849],[-78.03214,0.53869],[-78.03227,0.53884],[-78.03239,0.53891],[-78.03269,0.53894],[-78.03431,0.53851],[-78.03515,0.53825],[-78.03543,0.5381],[-78.03626,0.53747],[-78.03647,0.53739],[-78.0369,0.53736],[-78.03867,0.53753],[-78.03902,0.53754],[-78.03938,0.53751],[-78.03977,0.53741],[-78.04259,0.53638],[-78.04375,0.53586],[-78.04411,0.53586],[-78.04438,0.53599],[-78.04462,0.53624],[-78.04511,0.53705],[-78.04529,0.53743],[-78.04533,0.53762],[-78.04549,0.53784],[-78.04615,0.53842],[-78.04639,0.539],[-78.04642,0.53919],[-78.0464,0.53947],[-78.04682,0.54007],[-78.04656,0.54018],[-78.04633,0.53997],[-78.04617,0.53996],[-78.04586,0.54008],[-78.04572,0.54017],[-78.04561,0.54028],[-78.04558,0.5405],[-78.04555,0.54052],[-78.0453,0.54051],[-78.04486,0.54061],[-78.04447,0.54077],[-78.04428,0.5409],[-78.04389,0.54087],[-78.04367,0.54092],[-78.04358,0.54103],[-78.04343,0.54143],[-78.04289,0.54183],[-78.04274,0.54187],[-78.0425,0.54188],[-78.04222,0.54203],[-78.04195,0.5421],[-78.04144,0.54235],[-78.04121,0.54258],[-78.04105,0.54281],[-78.04055,0.54286],[-78.04044,0.54293],[-78.0404,0.54299],[-78.0404,0.54306],[-78.04044,0.54317],[-78.04056,0.54331],[-78.04052,0.54344],[-78.04029,0.5436],[-78.04021,0.54372],[-78.04006,0.54384],[-78.04,0.54405],[-78.03996,0.54412],[-78.03985,0.54417],[-78.0396,0.54421],[-78.03942,0.54437],[-78.03936,0.54448],[-78.0394,0.54465],[-78.03939,0.54472],[-78.0392,0.5448],[-78.03894,0.54485],[-78.03888,0.54489],[-78.03862,0.54525],[-78.03831,0.54552],[-78.03793,0.54599],[-78.03786,0.54612],[-78.03781,0.54635],[-78.03773,0.54644],[-78.03737,0.54658],[-78.0373,0.54663],[-78.03716,0.54681],[-78.03684,0.54679],[-78.03665,0.54667],[-78.03654,0.54674],[-78.03601,0.54752],[-78.036,0.54765],[-78.03618,0.54789],[-78.03619,0.54795],[-78.03614,0.54801],[-78.03595,0.54806],[-78.03586,0.54812],[-78.03578,0.54832],[-78.03576,0.54855],[-78.03573,0.54858],[-78.03563,0.54864],[-78.03544,0.5487],[-78.03507,0.54858]]]}},{"type":"Feature","properties":{"NUM_MUESTRA":15,"PROVINCIA":"CARCHI","CANTON":"MIRA","PARROQUIA":"MIRA","CIRCUNSCRIPCION":"CIRCUNSCRIPCIÓN URBANA","TIPOLOGIA":"A","ETIQUETA":"15 | A","COD_SECTOR":"040450999012","POB_T":176,"V_PRES":60,"AREA_KM2":4.1501,"DIST_LIMITE_M":660.32,"DENS_VIV":14.46,"DENS_POB":42.41},"geometry":{"type":"Polygon","coordinates":[[[-78.06708,0.51397],[-78.06713,0.51391],[-78.06712,0.51368],[-78.06715,0.51349],[-78.06728,0.51338],[-78.06758,0.51329],[-78.06798,0.5131],[-78.06805,0.51304],[-78.06829,0.51294],[-78.0687,0.51266],[-78.06881,0.51243],[-78.06882,0.51226],[-78.06877,0.51203],[-78.06866,0.51182],[-78.06865,0.51169],[-78.06872,0.51152],[-78.06894,0.51138],[-78.06896,0.51121],[-78.06898,0.51117],[-78.06913,0.51107],[-78.06937,0.51099],[-78.0697,0.511],[-78.0698,0.51094],[-78.06995,0.51074],[-78.07025,0.5106],[-78.07031,0.5105],[-78.07032,0.51024],[-78.07045,0.51007],[-78.07062,0.51004],[-78.07086,0.51023],[-78.07101,0.51022],[-78.07106,0.51013],[-78.07107,0.50966],[-78.07111,0.50962],[-78.07121,0.50962],[-78.07143,0.50974],[-78.07161,0.50974],[-78.0717,0.50966],[-78.0718,0.50937],[-78.07212,0.50922],[-78.07216,0.50909],[-78.07217,0.5088],[-78.07206,0.50846],[-78.07208,0.50832],[-78.07243,0.5083],[-78.07249,0.50823],[-78.07261,0.50822],[-78.07264,0.50825],[-78.07261,0.50844],[-78.07265,0.50854],[-78.07271,0.50857],[-78.07284,0.50856],[-78.07312,0.50842],[-78.07316,0.50803],[-78.07309,0.50794],[-78.07295,0.50785],[-78.07294,0.50773],[-78.07304,0.50762],[-78.07301,0.50754],[-78.07291,0.50747],[-78.07292,0.50727],[-78.07312,0.50708],[-78.07337,0.50696],[-78.07385,0.5068],[-78.07417,0.50678],[-78.07439,0.5067],[-78.07468,0.50668],[-78.07473,0.50664],[-78.07474,0.50654],[-78.07472,0.50647],[-78.07459,0.50636],[-78.07446,0.5063],[-78.07419,0.50625],[-78.07414,0.50618],[-78.07415,0.50605],[-78.07437,0.50582],[-78.07433,0.50561],[-78.07437,0.50553],[-78.07446,0.50548],[-78.07478,0.50549],[-78.0749,0.50546],[-78.07506,0.50514],[-78.07522,0.50501],[-78.07545,0.50496],[-78.07564,0.50497],[-78.07573,0.50502],[-78.07582,0.5052],[-78.07588,0.5052],[-78.07612,0.50479],[-78.0762,0.50479],[-78.07647,0.50495],[-78.07663,0.50509],[-78.07667,0.50518],[-78.07662,0.50555],[-78.07671,0.50566],[-78.07684,0.50565],[-78.07708,0.50552],[-78.07717,0.50539],[-78.07718,0.50522],[-78.0771,0.5047],[-78.07711,0.50461],[-78.07718,0.50454],[-78.07727,0.50453],[-78.07732,0.50456],[-78.07755,0.50481],[-78.07763,0.50486],[-78.07778,0.50486],[-78.078,0.50478],[-78.07814,0.50481],[-78.07831,0.50489],[-78.07845,0.50487],[-78.07851,0.50478],[-78.0785,0.50442],[-78.07865,0.50423],[-78.07872,0.50401],[-78.07888,0.50379],[-78.07891,0.50376],[-78.07912,0.50379],[-78.0792,0.50376],[-78.07921,0.50359],[-78.07929,0.50343],[-78.07939,0.50337],[-78.07954,0.50334],[-78.0797,0.50304],[-78.07976,0.50298],[-78.07985,0.50299],[-78.08001,0.50311],[-78.08013,0.50311],[-78.08018,0.50311],[-78.08022,0.50304],[-78.08033,0.50301],[-78.0805,0.50316],[-78.08061,0.50313],[-78.08066,0.50316],[-78.08065,0.50352],[-78.08074,0.50362],[-78.08076,0.50382],[-78.08079,0.50391],[-78.08088,0.50398],[-78.08089,0.50407],[-78.08117,0.50426],[-78.08125,0.50426],[-78.08141,0.50415],[-78.08149,0.50422],[-78.08174,0.50433],[-78.08187,0.50432],[-78.08198,0.50436],[-78.08214,0.50462],[-78.08232,0.50474],[-78.08252,0.50499],[-78.08261,0.50512],[-78.08262,0.5052],[-78.08281,0.50533],[-78.08309,0.50571],[-78.08308,0.50587],[-78.08317,0.5061],[-78.08317,0.50622],[-78.08322,0.5063],[-78.08319,0.50642],[-78.08325,0.50652],[-78.08326,0.50666],[-78.08314,0.50694],[-78.08305,0.50702],[-78.08308,0.50733],[-78.08301,0.50766],[-78.08308,0.50778],[-78.08297,0.50792],[-78.08296,0.50815],[-78.0829,0.50825],[-78.08288,0.50837],[-78.08294,0.50893],[-78.08298,0.50903],[-78.08298,0.50936],[-78.08313,0.50967],[-78.08371,0.51015],[-78.08385,0.51036],[-78.08394,0.51058],[-78.08398,0.51082],[-78.08412,0.51105],[-78.08409,0.51114],[-78.08412,0.51144],[-78.0842,0.5117],[-78.08423,0.51171],[-78.08418,0.51233],[-78.08421,0.5127],[-78.08419,0.51289],[-78.08423,0.51292],[-78.08413,0.51499],[-78.08423,0.51654],[-78.08422,0.51727],[-78.08404,0.51785],[-78.08393,0.5181],[-78.08284,0.51941],[-78.08265,0.51986],[-78.08226,0.52063],[-78.08195,0.52145],[-78.08187,0.52175],[-78.08152,0.52349],[-78.08151,0.5237],[-78.08161,0.52409],[-78.0816,0.52469],[-78.08118,0.52909],[-78.08105,0.53007],[-78.081,0.53111],[-78.08107,0.53153],[-78.08109,0.53268],[-78.08129,0.53525],[-78.08135,0.53628],[-78.08134,0.53695],[-78.07959,0.53632],[-78.07831,0.53593],[-78.07728,0.5359],[-78.07723,0.53577],[-78.07725,0.53548],[-78.07719,0.53535],[-78.07726,0.53497],[-78.07721,0.53469],[-78.07713,0.53464],[-78.07712,0.53459],[-78.07726,0.5343],[-78.07724,0.53423],[-78.07736,0.53416],[-78.07732,0.53399],[-78.07719,0.53384],[-78.07715,0.53367],[-78.07699,0.53353],[-78.07685,0.53349],[-78.0767,0.53324],[-78.07652,0.53317],[-78.07626,0.53288],[-78.07608,0.53281],[-78.07571,0.53244],[-78.07544,0.53238],[-78.0753,0.5324],[-78.0751,0.53219],[-78.07495,0.53226],[-78.07483,0.5321],[-78.07473,0.53206],[-78.07461,0.53208],[-78.07449,0.53191],[-78.07451,0.53183],[-78.07442,0.5317],[-78.0744,0.5316],[-78.07423,0.53143],[-78.07423,0.5312],[-78.07417,0.53117],[-78.07408,0.53124],[-78.07404,0.53123],[-78.07399,0.53106],[-78.07403,0.53092],[-78.07396,0.53083],[-78.07394,0.53065],[-78.07386,0.53051],[-78.07386,0.53042],[-78.07377,0.53033],[-78.07376,0.53019],[-78.0737,0.53005],[-78.0737,0.52989],[-78.07374,0.52982],[-78.07357,0.52973],[-78.07352,0.52964],[-78.07335,0.52962],[-78.07331,0.52954],[-78.07325,0.52951],[-78.07325,0.52922],[-78.07333,0.52908],[-78.07334,0.52898],[-78.07324,0.5289],[-78.07316,0.52872],[-78.07287,0.52838],[-78.07282,0.52824],[-78.07287,0.52805],[-78.07285,0.5279],[-78.07273,0.52783],[-78.07271,0.5277],[-78.07253,0.52757],[-78.07241,0.52736],[-78.0722,0.52729],[-78.07195,0.52706],[-78.07186,0.52701],[-78.07172,0.52685],[-78.07161,0.5268],[-78.07152,0.52657],[-78.07141,0.52641],[-78.07128,0.5263],[-78.0713,0.5261],[-78.07154,0.52598],[-78.07169,0.52586],[-78.0719,0.52581],[-78.07196,0.52568],[-78.07194,0.52555],[-78.07201,0.52548],[-78.07205,0.52531],[-78.07212,0.52524],[-78.07209,0.52506],[-78.07214,0.52499],[-78.07215,0.52485],[-78.07225,0.5247],[-78.07225,0.52423],[-78.07219,0.52403],[-78.07219,0.52383],[-78.07196,0.52358],[-78.07192,0.52345],[-78.07196,0.52332],[-78.07195,0.52313],[-78.07185,0.52294],[-78.07174,0.52287],[-78.07169,0.52271],[-78.07145,0.52258],[-78.07144,0.52252],[-78.07134,0.5224],[-78.07131,0.52221],[-78.07126,0.52214],[-78.07128,0.52204],[-78.07114,0.52191],[-78.07108,0.52177],[-78.071,0.52174],[-78.07093,0.52162],[-78.0708,0.52159],[-78.07068,0.52146],[-78.07026,0.52145],[-78.07003,0.52119],[-78.06984,0.52109],[-78.06979,0.52093],[-78.06962,0.52083],[-78.06962,0.52066],[-78.06973,0.52061],[-78.06986,0.52045],[-78.06992,0.5203],[-78.06981,0.52014],[-78.06979,0.51999],[-78.06968,0.51987],[-78.06966,0.51975],[-78.06961,0.51972],[-78.06954,0.51958],[-78.06952,0.51937],[-78.06955,0.51921],[-78.06944,0.5191],[-78.06945,0.51897],[-78.06935,0.51884],[-78.0694,0.51866],[-78.06928,0.51851],[-78.06919,0.51847],[-78.06914,0.51833],[-78.0691,0.51772],[-78.06923,0.51759],[-78.06926,0.51748],[-78.06923,0.51717],[-78.06915,0.51696],[-78.06913,0.51675],[-78.06886,0.5164],[-78.06873,0.51641],[-78.06859,0.51646],[-78.06849,0.51646],[-78.06845,0.51643],[-78.06843,0.51625],[-78.06832,0.51606],[-78.06828,0.51582],[-78.06806,0.5157],[-78.06787,0.51554],[-78.06785,0.5153],[-78.06774,0.51528],[-78.06754,0.51531],[-78.06753,0.51496],[-78.06737,0.51487],[-78.06734,0.51471],[-78.06721,0.51451],[-78.0672,0.51429],[-78.06711,0.51414],[-78.06708,0.51397]]]}},{"type":"Feature","properties":{"NUM_MUESTRA":27,"PROVINCIA":"CARCHI","CANTON":"MONTÚFAR","PARROQUIA":"CRISTÓBAL COLÓN","CIRCUNSCRIPCION":"CIRCUNSCRIPCIÓN RURAL","TIPOLOGIA":"B","ETIQUETA":"27 | B","COD_SECTOR":"040551001004","POB_T":315,"V_PRES":98,"AREA_KM2":0.1562,"DIST_LIMITE_M":530.6,"DENS_VIV":627.4,"DENS_POB":2016.65},"geometry":{"type":"Polygon","coordinates":[[[-77.80615,0.60742],[-77.80598,0.60709],[-77.806,0.60701],[-77.80609,0.60699],[-77.80627,0.60665],[-77.80626,0.60657],[-77.80671,0.60667],[-77.80888,0.60669],[-77.81058,0.60601],[-77.81108,0.60565],[-77.81159,0.60623],[-77.80996,0.6081],[-77.80965,0.6088],[-77.80924,0.61094],[-77.80925,0.61117],[-77.80956,0.612],[-77.80949,0.61252],[-77.80949,0.61339],[-77.80917,0.61339],[-77.8091,0.61334],[-77.80891,0.61254],[-77.80892,0.61202],[-77.80896,0.6119],[-77.80889,0.61188],[-77.80871,0.61158],[-77.80846,0.61068],[-77.80848,0.61063],[-77.80875,0.61057],[-77.80907,0.60965],[-77.80831,0.60929],[-77.80857,0.60902],[-77.80606,0.60825],[-77.80653,0.60737],[-77.80638,0.60729],[-77.8063,0.60729],[-77.80615,0.60742]]]}},{"type":"Feature","properties":{"NUM_MUESTRA":28,"PROVINCIA":"CARCHI","CANTON":"MONTÚFAR","PARROQUIA":"LA PAZ","CIRCUNSCRIPCION":"CIRCUNSCRIPCIÓN RURAL","TIPOLOGIA":"D","ETIQUETA":"28 | D","COD_SECTOR":"040554001004","POB_T":350,"V_PRES":108,"AREA_KM2":0.1293,"DIST_LIMITE_M":682.7,"DENS_VIV":835.27,"DENS_POB":2706.88},"geometry":{"type":"Polygon","coordinates":[[[-77.86482,0.50243],[-77.86505,0.50159],[-77.86512,0.50113],[-77.86541,0.50064],[-77.86569,0.50132],[-77.86566,0.50134],[-77.86561,0.50187],[-77.86559,0.50271],[-77.86531,0.50457],[-77.86523,0.50547],[-77.86534,0.50614],[-77.86547,0.50761],[-77.85966,0.50771],[-77.85966,0.50675],[-77.86099,0.50682],[-77.86392,0.50729],[-77.86387,0.5072],[-77.86372,0.50712],[-77.86327,0.50697],[-77.86309,0.50615],[-77.8631,0.50603],[-77.86319,0.50591],[-77.86399,0.50533],[-77.86441,0.5049],[-77.86444,0.50484],[-77.86486,0.50361],[-77.86482,0.50243]]]}},{"type":"Feature","properties":{"NUM_MUESTRA":19,"PROVINCIA":"CARCHI","CANTON":"MONTÚFAR","PARROQUIA":"SAN GABRIEL","CIRCUNSCRIPCION":"CIRCUNSCRIPCIÓN URBANA","TIPOLOGIA":"E","ETIQUETA":"19 | E","COD_SECTOR":"040550001005","POB_T":522,"V_PRES":156,"AREA_KM2":0.0909,"DIST_LIMITE_M":1427.3,"DENS_VIV":1716.17,"DENS_POB":5742.57},"geometry":{"type":"Polygon","coordinates":[[[-77.83631,0.60249],[-77.83481,0.59994],[-77.83635,0.59915],[-77.83698,0.59878],[-77.8378,0.60022],[-77.83725,0.60066],[-77.83812,0.60206],[-77.83672,0.60306],[-77.83631,0.60249]]]}},{"type":"Feature","properties":{"NUM_MUESTRA":20,"PROVINCIA":"CARCHI","CANTON":"MONTÚFAR","PARROQUIA":"SAN GABRIEL","CIRCUNSCRIPCION":"CIRCUNSCRIPCIÓN URBANA","TIPOLOGIA":"D","ETIQUETA":"20 | D","COD_SECTOR":"040550002002","POB_T":514,"V_PRES":161,"AREA_KM2":0.0652,"DIST_LIMITE_M":1069.96,"DENS_VIV":2469.33,"DENS_POB":7883.44},"geometry":{"type":"Polygon","coordinates":[[[-77.83052,0.59834],[-77.83091,0.59931],[-77.83105,0.5993],[-77.83198,0.60098],[-77.83197,0.60143],[-77.83177,0.60154],[-77.83137,0.60159],[-77.83098,0.60168],[-77.8308,0.6017],[-77.83075,0.60168],[-77.83068,0.60158],[-77.83048,0.60053],[-77.83041,0.60053],[-77.83042,0.6003],[-77.83,0.60031],[-77.82995,0.59992],[-77.82927,0.6],[-77.82841,0.59996],[-77.82847,0.59945],[-77.82794,0.59912],[-77.82855,0.59919],[-77.829,0.59912],[-77.82931,0.599],[-77.83052,0.59834]]]}},{"type":"Feature","properties":{"NUM_MUESTRA":21,"PROVINCIA":"CARCHI","CANTON":"MONTÚFAR","PARROQUIA":"SAN GABRIEL","CIRCUNSCRIPCION":"CIRCUNSCRIPCIÓN URBANA","TIPOLOGIA":"A","ETIQUETA":"21 | A","COD_SECTOR":"040550002006","POB_T":349,"V_PRES":100,"AREA_KM2":0.228,"DIST_LIMITE_M":121.42,"DENS_VIV":438.6,"DENS_POB":1530.7},"geometry":{"type":"Polygon","coordinates":[[[-77.82517,0.59727],[-77.82509,0.59844],[-77.82602,0.59829],[-77.82636,0.59832],[-77.82662,0.59841],[-77.82725,0.59877],[-77.82724,0.59892],[-77.82599,0.5991],[-77.82501,0.59932],[-77.82503,0.59961],[-77.82499,0.60034],[-77.82311,0.6006],[-77.8222,0.60067],[-77.82201,0.60073],[-77.82141,0.60098],[-77.82094,0.60132],[-77.81993,0.60191],[-77.8198,0.6019],[-77.81927,0.60204],[-77.81874,0.6022],[-77.81858,0.60228],[-77.8177,0.60288],[-77.81709,0.60303],[-77.81673,0.60304],[-77.81666,0.60301],[-77.81711,0.60279],[-77.81765,0.60244],[-77.8188,0.60146],[-77.81902,0.60116],[-77.81959,0.59989],[-77.81977,0.59963],[-77.82007,0.59935],[-77.82029,0.59923],[-77.82064,0.5991],[-77.82309,0.59873],[-77.82293,0.59829],[-77.82292,0.59816],[-77.8233,0.59757],[-77.82342,0.59723],[-77.82357,0.59696],[-77.82369,0.59654],[-77.8238,0.59641],[-77.82399,0.59633],[-77.82443,0.59629],[-77.82507,0.59635],[-77.82517,0.59727]]]}},{"type":"Feature","properties":{"NUM_MUESTRA":22,"PROVINCIA":"CARCHI","CANTON":"MONTÚFAR","PARROQUIA":"SAN GABRIEL","CIRCUNSCRIPCION":"CIRCUNSCRIPCIÓN URBANA","TIPOLOGIA":"C","ETIQUETA":"22 | C","COD_SECTOR":"040550004001","POB_T":479,"V_PRES":157,"AREA_KM2":0.1209,"DIST_LIMITE_M":1685.71,"DENS_VIV":1298.59,"DENS_POB":3961.95},"geometry":{"type":"Polygon","coordinates":[[[-77.83706,0.59518],[-77.83664,0.59525],[-77.83633,0.59537],[-77.83622,0.59553],[-77.83619,0.59569],[-77.83549,0.59619],[-77.83521,0.59582],[-77.83483,0.59579],[-77.83456,0.59569],[-77.83447,0.59557],[-77.83426,0.59512],[-77.83244,0.59629],[-77.83208,0.59574],[-77.83342,0.5947],[-77.83295,0.59406],[-77.83205,0.59266],[-77.83333,0.59182],[-77.83333,0.59167],[-77.83349,0.5913],[-77.83351,0.59116],[-77.83329,0.59051],[-77.83328,0.5904],[-77.83333,0.59031],[-77.83345,0.59028],[-77.8335,0.5904],[-77.83362,0.59057],[-77.83374,0.59063],[-77.83394,0.59059],[-77.834,0.59062],[-77.83408,0.59076],[-77.83411,0.59088],[-77.8341,0.59097],[-77.83403,0.5911],[-77.83404,0.5913],[-77.83388,0.59174],[-77.83387,0.5919],[-77.83393,0.59207],[-77.83406,0.59218],[-77.83408,0.59238],[-77.83399,0.59273],[-77.83414,0.59287],[-77.83419,0.59297],[-77.83418,0.59355],[-77.83425,0.59366],[-77.83437,0.59368],[-77.83454,0.59357],[-77.83482,0.59384],[-77.83487,0.59403],[-77.83489,0.59422],[-77.83477,0.59447],[-77.83477,0.59467],[-77.83501,0.59471],[-77.83517,0.59494],[-77.83526,0.59494],[-77.83533,0.59484],[-77.83533,0.59473],[-77.83539,0.59457],[-77.83536,0.59449],[-77.83528,0.59442],[-77.83525,0.59428],[-77.83536,0.59419],[-77.83561,0.59419],[-77.83577,0.59412],[-77.83584,0.59423],[-77.83587,0.59445],[-77.83599,0.59462],[-77.83602,0.59466],[-77.83624,0.59471],[-77.83628,0.59475],[-77.83629,0.59503],[-77.8364,0.59509],[-77.83649,0.59509],[-77.83674,0.59499],[-77.83709,0.59499],[-77.83715,0.59505],[-77.83706,0.59518]]]}},{"type":"Feature","properties":{"NUM_MUESTRA":23,"PROVINCIA":"CARCHI","CANTON":"MONTÚFAR","PARROQUIA":"SAN GABRIEL","CIRCUNSCRIPCION":"CIRCUNSCRIPCIÓN URBANA","TIPOLOGIA":"H","ETIQUETA":"23 | H","COD_SECTOR":"040550003003","POB_T":351,"V_PRES":103,"AREA_KM2":0.1085,"DIST_LIMITE_M":1582.24,"DENS_VIV":949.31,"DENS_POB":3235.02},"geometry":{"type":"Polygon","coordinates":[[[-77.82949,0.59419],[-77.82929,0.59457],[-77.82918,0.59455],[-77.82891,0.59468],[-77.82876,0.59467],[-77.82861,0.59459],[-77.82852,0.59457],[-77.82812,0.59463],[-77.82793,0.5947],[-77.8276,0.59428],[-77.82707,0.59342],[-77.82688,0.59316],[-77.82663,0.59287],[-77.82623,0.59252],[-77.826,0.59224],[-77.82604,0.5918],[-77.8264,0.59184],[-77.82631,0.59136],[-77.82683,0.59104],[-77.82606,0.58993],[-77.82696,0.58938],[-77.82789,0.59073],[-77.82815,0.59117],[-77.82827,0.59148],[-77.82859,0.59269],[-77.82875,0.59314],[-77.82903,0.59364],[-77.82949,0.59419]]]}},{"type":"Feature","properties":{"NUM_MUESTRA":24,"PROVINCIA":"CARCHI","CANTON":"MONTÚFAR","PARROQUIA":"SAN GABRIEL","CIRCUNSCRIPCION":"CIRCUNSCRIPCIÓN URBANA","TIPOLOGIA":"B","ETIQUETA":"24 | B","COD_SECTOR":"040550003007","POB_T":293,"V_PRES":82,"AREA_KM2":0.0307,"DIST_LIMITE_M":1544.54,"DENS_VIV":2671.01,"DENS_POB":9543.97},"geometry":{"type":"Polygon","coordinates":[[[-77.82559,0.58552],[-77.82402,0.58748],[-77.82271,0.58665],[-77.82357,0.58563],[-77.82438,0.5863],[-77.82526,0.58524],[-77.82559,0.58552]]]}},{"type":"Feature","properties":{"NUM_MUESTRA":25,"PROVINCIA":"CARCHI","CANTON":"MONTÚFAR","PARROQUIA":"SAN GABRIEL","CIRCUNSCRIPCION":"CIRCUNSCRIPCIÓN URBANA","TIPOLOGIA":"F","ETIQUETA":"25 | F","COD_SECTOR":"040550999012","POB_T":202,"V_PRES":62,"AREA_KM2":0.802,"DIST_LIMITE_M":1815.85,"DENS_VIV":77.31,"DENS_POB":251.87},"geometry":{"type":"Polygon","coordinates":[[[-77.84062,0.58369],[-77.84049,0.58384],[-77.84013,0.58416],[-77.83981,0.58471],[-77.83966,0.58506],[-77.8396,0.58562],[-77.84004,0.58571],[-77.84026,0.58742],[-77.83781,0.59009],[-77.83773,0.59005],[-77.83725,0.59005],[-77.8371,0.58999],[-77.83674,0.58998],[-77.8366,0.58978],[-77.83639,0.58961],[-77.83575,0.58933],[-77.83567,0.58932],[-77.83549,0.58951],[-77.83524,0.5897],[-77.83464,0.58981],[-77.83438,0.58991],[-77.83416,0.59004],[-77.83405,0.59005],[-77.83399,0.58998],[-77.83385,0.58969],[-77.83379,0.58964],[-77.83375,0.58964],[-77.83366,0.58955],[-77.8337,0.5895],[-77.83326,0.58926],[-77.83313,0.58922],[-77.83278,0.58919],[-77.83262,0.58898],[-77.83207,0.5885],[-77.8316,0.58844],[-77.83155,0.58841],[-77.83135,0.58809],[-77.8313,0.58797],[-77.8313,0.58785],[-77.83139,0.58766],[-77.8317,0.58747],[-77.83171,0.58741],[-77.83158,0.5873],[-77.83124,0.58722],[-77.83105,0.58706],[-77.83078,0.58694],[-77.83062,0.58683],[-77.83045,0.5866],[-77.8303,0.5862],[-77.83016,0.58596],[-77.83017,0.58586],[-77.83036,0.58575],[-77.83052,0.58546],[-77.8306,0.5852],[-77.83071,0.58465],[-77.83073,0.58423],[-77.83076,0.58417],[-77.83091,0.58407],[-77.83094,0.58399],[-77.83093,0.58369],[-77.83076,0.58295],[-77.8307,0.58279],[-77.83054,0.58251],[-77.83053,0.58219],[-77.8306,0.58156],[-77.8308,0.58076],[-77.83083,0.57978],[-77.83115,0.57927],[-77.83113,0.57909],[-77.83117,0.57893],[-77.83129,0.57884],[-77.83148,0.57892],[-77.83159,0.57914],[-77.83189,0.57946],[-77.83228,0.57979],[-77.83234,0.57981],[-77.83238,0.57979],[-77.83286,0.58033],[-77.83318,0.58053],[-77.83327,0.58079],[-77.83364,0.58134],[-77.83372,0.58158],[-77.83376,0.58188],[-77.834,0.58232],[-77.83409,0.58266],[-77.83426,0.5829],[-77.83462,0.58289],[-77.83471,0.58293],[-77.83518,0.58293],[-77.83554,0.5829],[-77.83574,0.58285],[-77.8361,0.58286],[-77.8364,0.58299],[-77.83676,0.58329],[-77.83695,0.58333],[-77.83778,0.58376],[-77.83791,0.58391],[-77.83813,0.58396],[-77.83914,0.58388],[-77.84026,0.58372],[-77.84036,0.58375],[-77.84062,0.58369]]]}},{"type":"Feature","properties":{"NUM_MUESTRA":26,"PROVINCIA":"CARCHI","CANTON":"MONTÚFAR","PARROQUIA":"SAN GABRIEL","CIRCUNSCRIPCION":"CIRCUNSCRIPCIÓN URBANA","TIPOLOGIA":"G","ETIQUETA":"26 | G","COD_SECTOR":"040550004010","POB_T":682,"V_PRES":189,"AREA_KM2":0.2763,"DIST_LIMITE_M":1589.66,"DENS_VIV":684.04,"DENS_POB":2468.33},"geometry":{"type":"Polygon","coordinates":[[[-77.82478,0.57513],[-77.82514,0.57847],[-77.82507,0.57868],[-77.82505,0.57898],[-77.82495,0.57911],[-77.8246,0.57927],[-77.82342,0.57993],[-77.82432,0.58114],[-77.82496,0.58212],[-77.82529,0.58238],[-77.82619,0.58288],[-77.82662,0.58189],[-77.82728,0.5822],[-77.82731,0.58228],[-77.82736,0.58333],[-77.82732,0.58387],[-77.82725,0.58405],[-77.82679,0.58349],[-77.82682,0.58403],[-77.82675,0.58444],[-77.82594,0.58451],[-77.82583,0.58459],[-77.82567,0.58331],[-77.82603,0.58292],[-77.82599,0.58289],[-77.82572,0.58273],[-77.82552,0.5827],[-77.8252,0.58269],[-77.82455,0.58273],[-77.82438,0.58269],[-77.82342,0.58191],[-77.82301,0.58151],[-77.82269,0.58185],[-77.82003,0.57906],[-77.82193,0.57799],[-77.82142,0.57736],[-77.82478,0.57513]]]}},{"type":"Feature","properties":{"NUM_MUESTRA":29,"PROVINCIA":"CARCHI","CANTON":"SAN PEDRO DE HUACA","PARROQUIA":"HUACA","CIRCUNSCRIPCION":"CIRCUNSCRIPCIÓN URBANA","TIPOLOGIA":"F","ETIQUETA":"29 | F","COD_SECTOR":"040650999008","POB_T":217,"V_PRES":63,"AREA_KM2":2.9328,"DIST_LIMITE_M":449.91,"DENS_VIV":21.48,"DENS_POB":73.99},"geometry":{"type":"Polygon","coordinates":[[[-77.71519,0.63047],[-77.71521,0.63051],[-77.71537,0.63051],[-77.71548,0.63033],[-77.71559,0.63021],[-77.71576,0.63017],[-77.71586,0.63009],[-77.71591,0.62992],[-77.71623,0.62965],[-77.71698,0.62913],[-77.71761,0.62906],[-77.71802,0.62906],[-77.71821,0.629],[-77.7184,0.62907],[-77.71892,0.62903],[-77.71911,0.62897],[-77.71965,0.62923],[-77.71983,0.62938],[-77.71998,0.62946],[-77.72006,0.62956],[-77.72019,0.62986],[-77.72057,0.63049],[-77.72063,0.63067],[-77.72071,0.63105],[-77.72069,0.63157],[-77.72092,0.63171],[-77.72104,0.63185],[-77.72104,0.63202],[-77.72097,0.63213],[-77.72083,0.63223],[-77.72066,0.63223],[-77.72052,0.63217],[-77.72045,0.63221],[-77.72039,0.63217],[-77.72011,0.63232],[-77.72007,0.63242],[-77.72015,0.63253],[-77.72036,0.63264],[-77.72041,0.63275],[-77.72039,0.63292],[-77.72015,0.63322],[-77.71993,0.63361],[-77.71985,0.634],[-77.71995,0.63453],[-77.71978,0.63489],[-77.71981,0.63502],[-77.71986,0.63508],[-77.71985,0.63532],[-77.71962,0.6354],[-77.71955,0.63549],[-77.7191,0.63577],[-77.71885,0.63585],[-77.71845,0.63586],[-77.71812,0.63593],[-77.71798,0.63601],[-77.71758,0.63654],[-77.71759,0.63676],[-77.71755,0.63693],[-77.71758,0.63704],[-77.71753,0.63714],[-77.7175,0.63752],[-77.71724,0.63775],[-77.71716,0.63806],[-77.71691,0.63819],[-77.71687,0.63833],[-77.71679,0.6384],[-77.71649,0.63849],[-77.71645,0.63855],[-77.71637,0.63869],[-77.71634,0.63905],[-77.71619,0.63912],[-77.716,0.6394],[-77.71593,0.63971],[-77.71574,0.63987],[-77.71569,0.64003],[-77.71576,0.64004],[-77.71587,0.64],[-77.71603,0.64006],[-77.7162,0.64002],[-77.71624,0.64005],[-77.71622,0.64014],[-77.71611,0.64025],[-77.71604,0.64027],[-77.71561,0.64027],[-77.71534,0.64037],[-77.71519,0.64055],[-77.71515,0.64067],[-77.71515,0.64082],[-77.71511,0.64091],[-77.71512,0.64111],[-77.71501,0.64133],[-77.71517,0.64152],[-77.71519,0.64171],[-77.71515,0.64173],[-77.71496,0.64168],[-77.71493,0.6418],[-77.71502,0.64198],[-77.715,0.64212],[-77.71512,0.64214],[-77.71523,0.64213],[-77.71539,0.64222],[-77.71519,0.64237],[-77.71517,0.64255],[-77.71504,0.64283],[-77.71497,0.64324],[-77.71489,0.64344],[-77.71459,0.64368],[-77.71453,0.64377],[-77.71451,0.64391],[-77.71461,0.64416],[-77.71447,0.64485],[-77.71439,0.64486],[-77.71432,0.64481],[-77.71427,0.6446],[-77.7142,0.64456],[-77.71393,0.64461],[-77.71385,0.64466],[-77.71358,0.64467],[-77.71339,0.64457],[-77.71324,0.64455],[-77.71278,0.64437],[-77.71271,0.64436],[-77.71253,0.64447],[-77.71231,0.64448],[-77.71225,0.64446],[-77.71225,0.64431],[-77.71214,0.64418],[-77.71205,0.64414],[-77.71191,0.64416],[-77.71177,0.64413],[-77.71163,0.64398],[-77.71123,0.64385],[-77.71064,0.64358],[-77.70981,0.64343],[-77.70952,0.64334],[-77.70934,0.64317],[-77.70921,0.64313],[-77.70908,0.6432],[-77.70861,0.64297],[-77.7085,0.64269],[-77.7082,0.64274],[-77.70805,0.64264],[-77.70804,0.64257],[-77.70746,0.64232],[-77.7072,0.64217],[-77.70707,0.642],[-77.70633,0.64179],[-77.70624,0.64172],[-77.70558,0.64196],[-77.70531,0.64203],[-77.70462,0.64187],[-77.70455,0.64162],[-77.70397,0.64175],[-77.70301,0.64104],[-77.70246,0.64105],[-77.70015,0.63971],[-77.70005,0.63947],[-77.69982,0.63939],[-77.6996,0.63954],[-77.6994,0.6396],[-77.69921,0.63978],[-77.69874,0.63971],[-77.69832,0.6397],[-77.69764,0.64023],[-77.69796,0.64048],[-77.69779,0.64065],[-77.69741,0.64089],[-77.69704,0.64162],[-77.69675,0.64207],[-77.69657,0.64248],[-77.69641,0.64216],[-77.69629,0.642],[-77.69578,0.64187],[-77.6958,0.64123],[-77.69564,0.64116],[-77.69583,0.64076],[-77.69577,0.64056],[-77.69533,0.64034],[-77.69531,0.64016],[-77.69545,0.64],[-77.69521,0.63974],[-77.69536,0.63938],[-77.69527,0.63929],[-77.69523,0.639],[-77.69532,0.63881],[-77.69503,0.63836],[-77.69498,0.63785],[-77.69501,0.63769],[-77.69481,0.63749],[-77.69446,0.63667],[-77.69429,0.63648],[-77.69416,0.6362],[-77.69418,0.63574],[-77.69434,0.63515],[-77.69451,0.63478],[-77.69465,0.63465],[-77.69473,0.63441],[-77.69473,0.63425],[-77.69464,0.6336],[-77.6946,0.63346],[-77.69449,0.63325],[-77.69431,0.63307],[-77.69439,0.63291],[-77.69394,0.63117],[-77.69388,0.63078],[-77.6937,0.63048],[-77.69362,0.63012],[-77.69375,0.62588],[-77.70092,0.63614],[-77.70084,0.63628],[-77.7009,0.63656],[-77.70181,0.63657],[-77.70222,0.63626],[-77.70238,0.63606],[-77.70237,0.63581],[-77.70308,0.63523],[-77.70334,0.63487],[-77.70353,0.6347],[-77.70368,0.63492],[-77.70418,0.63483],[-77.70468,0.63452],[-77.70446,0.63415],[-77.70476,0.63406],[-77.70498,0.63405],[-77.70656,0.63371],[-77.70666,0.63334],[-77.70676,0.63325],[-77.70681,0.63314],[-77.70698,0.63302],[-77.70702,0.63289],[-77.70722,0.63265],[-77.70769,0.63261],[-77.70821,0.63265],[-77.70889,0.63266],[-77.70894,0.63262],[-77.70902,0.63244],[-77.70917,0.63228],[-77.70935,0.63221],[-77.70952,0.63177],[-77.70979,0.63172],[-77.71002,0.63172],[-77.71031,0.63165],[-77.71057,0.63169],[-77.71069,0.63167],[-77.71082,0.63176],[-77.71104,0.63184],[-77.71125,0.63189],[-77.71144,0.63188],[-77.71183,0.63173],[-77.71198,0.63161],[-77.71205,0.63097],[-77.71217,0.63088],[-77.71229,0.63086],[-77.71238,0.63093],[-77.7126,0.631],[-77.71275,0.63099],[-77.71283,0.63082],[-77.71367,0.63053],[-77.71376,0.63071],[-77.71404,0.63064],[-77.71429,0.63089],[-77.71445,0.63093],[-77.71449,0.63082],[-77.71446,0.63072],[-77.71461,0.63074],[-77.71486,0.63082],[-77.71504,0.63082],[-77.71509,0.63065],[-77.71519,0.63047]]]}},{"type":"Feature","properties":{"NUM_MUESTRA":30,"PROVINCIA":"CARCHI","CANTON":"SAN PEDRO DE HUACA","PARROQUIA":"HUACA","CIRCUNSCRIPCION":"CIRCUNSCRIPCIÓN URBANA","TIPOLOGIA":"G","ETIQUETA":"30 | G","COD_SECTOR":"040650001009","POB_T":556,"V_PRES":169,"AREA_KM2":0.8841,"DIST_LIMITE_M":221.67,"DENS_VIV":191.15,"DENS_POB":628.89},"geometry":{"type":"Polygon","coordinates":[[[-77.7324,0.61634],[-77.73216,0.61596],[-77.73594,0.61038],[-77.73602,0.61029],[-77.73673,0.61003],[-77.73716,0.60993],[-77.73782,0.61047],[-77.73728,0.61107],[-77.73654,0.61225],[-77.73625,0.61275],[-77.73697,0.61325],[-77.73852,0.61481],[-77.73905,0.61462],[-77.73994,0.61436],[-77.74032,0.6142],[-77.74056,0.61419],[-77.74081,0.61422],[-77.7412,0.61432],[-77.74129,0.61443],[-77.74129,0.61471],[-77.74118,0.61677],[-77.74233,0.61644],[-77.74262,0.61847],[-77.74187,0.61871],[-77.73944,0.61974],[-77.73949,0.6203],[-77.73948,0.62044],[-77.73942,0.62052],[-77.73912,0.62068],[-77.73909,0.62076],[-77.73915,0.62104],[-77.73922,0.62117],[-77.73934,0.62135],[-77.73973,0.6218],[-77.73972,0.62187],[-77.7393,0.62214],[-77.73905,0.62226],[-77.73847,0.62238],[-77.73807,0.62241],[-77.73714,0.62267],[-77.73684,0.62294],[-77.73658,0.6231],[-77.73612,0.62349],[-77.73554,0.62389],[-77.73499,0.62419],[-77.73491,0.62427],[-77.73462,0.62483],[-77.73447,0.62506],[-77.73432,0.62516],[-77.73362,0.62546],[-77.73358,0.62502],[-77.73343,0.62445],[-77.73314,0.62388],[-77.73283,0.62339],[-77.73329,0.62314],[-77.7331,0.62257],[-77.73286,0.62199],[-77.73325,0.62187],[-77.73395,0.62151],[-77.7346,0.62102],[-77.736,0.62003],[-77.73638,0.61985],[-77.73622,0.61963],[-77.73415,0.61741],[-77.73392,0.61721],[-77.73358,0.61701],[-77.73275,0.61662],[-77.7324,0.61634]]]}},{"type":"Feature","properties":{"NUM_MUESTRA":31,"PROVINCIA":"CARCHI","CANTON":"SAN PEDRO DE HUACA","PARROQUIA":"MARISCAL SUCRE","CIRCUNSCRIPCION":"CIRCUNSCRIPCIÓN RURAL","TIPOLOGIA":"A","ETIQUETA":"31 | A","COD_SECTOR":"040651001002","POB_T":474,"V_PRES":143,"AREA_KM2":0.3504,"DIST_LIMITE_M":160.98,"DENS_VIV":408.11,"DENS_POB":1352.74},"geometry":{"type":"Polygon","coordinates":[[[-77.73453,0.59389],[-77.73357,0.59306],[-77.7327,0.5922],[-77.7324,0.59195],[-77.73181,0.59272],[-77.73135,0.5936],[-77.72995,0.59253],[-77.73168,0.58968],[-77.73272,0.58811],[-77.73245,0.58768],[-77.73237,0.58763],[-77.73225,0.58762],[-77.73216,0.58766],[-77.73203,0.58778],[-77.7318,0.58819],[-77.73158,0.58842],[-77.73146,0.5885],[-77.7313,0.58852],[-77.73121,0.5885],[-77.73116,0.58841],[-77.73131,0.58837],[-77.73136,0.58831],[-77.73145,0.58803],[-77.73147,0.58787],[-77.73161,0.58778],[-77.73161,0.58767],[-77.73154,0.58758],[-77.73168,0.58734],[-77.73196,0.58706],[-77.73204,0.58708],[-77.73238,0.58675],[-77.73255,0.58668],[-77.73273,0.58676],[-77.73287,0.58676],[-77.73312,0.58687],[-77.73333,0.58699],[-77.73341,0.5871],[-77.73352,0.58712],[-77.73359,0.5872],[-77.7338,0.58709],[-77.7339,0.58712],[-77.73416,0.58734],[-77.73434,0.58736],[-77.73438,0.58744],[-77.73448,0.5875],[-77.73478,0.58762],[-77.73483,0.58768],[-77.73496,0.58771],[-77.73504,0.58781],[-77.73505,0.58789],[-77.73517,0.58794],[-77.73523,0.5881],[-77.73536,0.58817],[-77.73544,0.58848],[-77.73555,0.58857],[-77.73555,0.58878],[-77.73563,0.58888],[-77.73572,0.58892],[-77.73573,0.589],[-77.73588,0.58907],[-77.73594,0.58929],[-77.73601,0.58938],[-77.73606,0.5895],[-77.73613,0.58956],[-77.73616,0.58968],[-77.73626,0.58974],[-77.73626,0.58989],[-77.73633,0.58995],[-77.73636,0.59006],[-77.73633,0.59026],[-77.73638,0.59032],[-77.73643,0.59053],[-77.73653,0.59059],[-77.73658,0.59069],[-77.73676,0.59084],[-77.73691,0.59085],[-77.73696,0.59092],[-77.7369,0.59109],[-77.73696,0.59115],[-77.73692,0.59135],[-77.737,0.5915],[-77.73687,0.59165],[-77.73685,0.59179],[-77.73672,0.59172],[-77.73667,0.59173],[-77.73669,0.59196],[-77.73665,0.59207],[-77.73633,0.59232],[-77.73613,0.59256],[-77.73604,0.59269],[-77.73599,0.59286],[-77.73545,0.59357],[-77.73504,0.59328],[-77.73453,0.59389]]]}}]}